{"type": "FeatureCollection", "features": [{"type": "Feature", "geometry": {"type": "Point", "coordinates": [-2.0, 37.5]}, "properties": {"haines_bajo": 4, "haines_medio": 3, "haines_alto": 2, "estabilidad_baja": 7.3, "sequedad_baja": 2.1, "estabilidad_media": 9.9, "sequedad_media": 2.1, "estabilidad_alta": 15.5, "sequedad_alta": 2.3, "t850": 13.7, "t700": 3.9, "t500": -11.7, "rh850": 87.0, "rh700": 84.9, "td850_estimado": 11.6, "td700_estimado": 1.6}}, {"type": "Feature", "geometry": {"type": "Point", "coordinates": [-1.75, 37.5]}, "properties": {"haines_bajo": 4, "haines_medio": 3, "haines_alto": 2, "estabilidad_baja": 7.4, "sequedad_baja": 1.0, "estabilidad_media": 9.5, "sequedad_media": 1.0, "estabilidad_alta": 15.8, "sequedad_alta": 3.2, "t850": 13.5, "t700": 4.0, "t500": -11.8, "rh850": 93.5, "rh700": 79.5, "td850_estimado": 12.5, "td700_estimado": 0.8}}, {"type": "Feature", "geometry": {"type": "Point", "coordinates": [-1.5, 37.5]}, "properties": {"haines_bajo": 3, "haines_medio": 4, "haines_alto": 2, "estabilidad_baja": 5.8, "sequedad_baja": 2.4, "estabilidad_media": 10.0, "sequedad_media": 2.4, "estabilidad_alta": 15.8, "sequedad_alta": 3.6, "t850": 14.2, "t700": 4.2, "t500": -11.6, "rh850": 85.5, "rh700": 77.3, "td850_estimado": 11.8, "td700_estimado": 0.5}}, {"type": "Feature", "geometry": {"type": "Point", "coordinates": [-1.25, 37.5]}, "properties": {"haines_bajo": 3, "haines_medio": 3, "haines_alto": 2, "estabilidad_baja": 5.3, "sequedad_baja": 2.2, "estabilidad_media": 9.8, "sequedad_media": 2.2, "estabilidad_alta": 16.1, "sequedad_alta": 4.5, "t850": 14.3, "t700": 4.4, "t500": -11.7, "rh850": 86.9, "rh700": 72.8, "td850_estimado": 12.1, "td700_estimado": -0.0}}, {"type": "Feature", "geometry": {"type": "Point", "coordinates": [-1.0, 37.5]}, "properties": {"haines_bajo": 3, "haines_medio": 3, "haines_alto": 2, "estabilidad_baja": 4.8, "sequedad_baja": 2.3, "estabilidad_media": 9.9, "sequedad_media": 2.3, "estabilidad_alta": 16.7, "sequedad_alta": 4.2, "t850": 14.6, "t700": 4.6, "t500": -12.0, "rh850": 85.9, "rh700": 74.1, "td850_estimado": 12.2, "td700_estimado": 0.4}}, {"type": "Feature", "geometry": {"type": "Point", "coordinates": [-0.75, 37.5]}, "properties": {"haines_bajo": 3, "haines_medio": 4, "haines_alto": 3, "estabilidad_baja": 4.0, "sequedad_baja": 3.4, "estabilidad_media": 10.3, "sequedad_media": 3.4, "estabilidad_alta": 17.1, "sequedad_alta": 3.8, "t850": 15.1, "t700": 4.8, "t500": -12.3, "rh850": 80.3, "rh700": 76.6, "td850_estimado": 11.7, "td700_estimado": 1.0}}, {"type": "Feature", "geometry": {"type": "Point", "coordinates": [-0.5, 37.5]}, "properties": {"haines_bajo": 4, "haines_medio": 5, "haines_alto": 3, "estabilidad_baja": 3.9, "sequedad_baja": 5.1, "estabilidad_media": 10.8, "sequedad_media": 5.1, "estabilidad_alta": 17.2, "sequedad_alta": 4.1, "t850": 15.8, "t700": 5.0, "t500": -12.2, "rh850": 71.8, "rh700": 74.8, "td850_estimado": 10.7, "td700_estimado": 0.9}}, {"type": "Feature", "geometry": {"type": "Point", "coordinates": [-0.25, 37.5]}, "properties": {"haines_bajo": 4, "haines_medio": 5, "haines_alto": 2, "estabilidad_baja": 3.4, "sequedad_baja": 6.9, "estabilidad_media": 11.2, "sequedad_media": 6.9, "estabilidad_alta": 16.9, "sequedad_alta": 4.1, "t850": 16.2, "t700": 5.0, "t500": -11.9, "rh850": 63.5, "rh700": 75.0, "td850_estimado": 9.2, "td700_estimado": 0.9}}, {"type": "Feature", "geometry": {"type": "Point", "coordinates": [0.0, 37.5]}, "properties": {"haines_bajo": 4, "haines_medio": 5, "haines_alto": 3, "estabilidad_baja": 3.3, "sequedad_baja": 8.3, "estabilidad_media": 11.3, "sequedad_media": 8.3, "estabilidad_alta": 17.2, "sequedad_alta": 3.7, "t850": 16.3, "t700": 5.0, "t500": -12.2, "rh850": 57.8, "rh700": 77.1, "td850_estimado": 8.0, "td700_estimado": 1.3}}, {"type": "Feature", "geometry": {"type": "Point", "coordinates": [0.25, 37.5]}, "properties": {"haines_bajo": 5, "haines_medio": 5, "haines_alto": 3, "estabilidad_baja": 3.6, "sequedad_baja": 9.2, "estabilidad_media": 11.5, "sequedad_media": 9.2, "estabilidad_alta": 17.9, "sequedad_alta": 3.4, "t850": 16.5, "t700": 5.0, "t500": -12.9, "rh850": 54.6, "rh700": 78.5, "td850_estimado": 7.3, "td700_estimado": 1.5}}, {"type": "Feature", "geometry": {"type": "Point", "coordinates": [0.5, 37.5]}, "properties": {"haines_bajo": 5, "haines_medio": 5, "haines_alto": 3, "estabilidad_baja": 4.0, "sequedad_baja": 9.6, "estabilidad_media": 11.7, "sequedad_media": 9.6, "estabilidad_alta": 18.0, "sequedad_alta": 3.4, "t850": 16.5, "t700": 4.9, "t500": -13.1, "rh850": 53.2, "rh700": 78.9, "td850_estimado": 7.0, "td700_estimado": 1.5}}, {"type": "Feature", "geometry": {"type": "Point", "coordinates": [0.75, 37.5]}, "properties": {"haines_bajo": 5, "haines_medio": 5, "haines_alto": 3, "estabilidad_baja": 4.4, "sequedad_baja": 9.5, "estabilidad_media": 11.9, "sequedad_media": 9.5, "estabilidad_alta": 17.9, "sequedad_alta": 3.5, "t850": 16.7, "t700": 4.8, "t500": -13.0, "rh850": 53.6, "rh700": 78.1, "td850_estimado": 7.2, "td700_estimado": 1.4}}, {"type": "Feature", "geometry": {"type": "Point", "coordinates": [1.0, 37.5]}, "properties": {"haines_bajo": 5, "haines_medio": 5, "haines_alto": 3, "estabilidad_baja": 5.1, "sequedad_baja": 9.2, "estabilidad_media": 12.0, "sequedad_media": 9.2, "estabilidad_alta": 18.0, "sequedad_alta": 3.9, "t850": 17.0, "t700": 5.0, "t500": -13.1, "rh850": 54.8, "rh700": 75.8, "td850_estimado": 7.8, "td700_estimado": 1.0}}, {"type": "Feature", "geometry": {"type": "Point", "coordinates": [-2.0, 37.75]}, "properties": {"haines_bajo": 4, "haines_medio": 4, "haines_alto": 2, "estabilidad_baja": 7.0, "sequedad_baja": 4.4, "estabilidad_media": 10.4, "sequedad_media": 4.4, "estabilidad_alta": 15.3, "sequedad_alta": 0.9, "t850": 13.9, "t700": 3.5, "t500": -11.8, "rh850": 74.7, "rh700": 93.7, "td850_estimado": 9.5, "td700_estimado": 2.6}}, {"type": "Feature", "geometry": {"type": "Point", "coordinates": [-1.75, 37.75]}, "properties": {"haines_bajo": 3, "haines_medio": 4, "haines_alto": 2, "estabilidad_baja": 6.7, "sequedad_baja": 2.9, "estabilidad_media": 10.2, "sequedad_media": 2.9, "estabilidad_alta": 15.0, "sequedad_alta": 1.5, "t850": 13.8, "t700": 3.6, "t500": -11.4, "rh850": 82.8, "rh700": 89.7, "td850_estimado": 10.9, "td700_estimado": 2.0}}, {"type": "Feature", "geometry": {"type": "Point", "coordinates": [-1.5, 37.75]}, "properties": {"haines_bajo": 3, "haines_medio": 4, "haines_alto": 2, "estabilidad_baja": 6.9, "sequedad_baja": 2.1, "estabilidad_media": 10.1, "sequedad_media": 2.1, "estabilidad_alta": 15.4, "sequedad_alta": 2.0, "t850": 13.9, "t700": 3.8, "t500": -11.6, "rh850": 87.1, "rh700": 86.5, "td850_estimado": 11.8, "td700_estimado": 1.8}}, {"type": "Feature", "geometry": {"type": "Point", "coordinates": [-1.25, 37.75]}, "properties": {"haines_bajo": 4, "haines_medio": 3, "haines_alto": 2, "estabilidad_baja": 7.8, "sequedad_baja": 0.4, "estabilidad_media": 9.4, "sequedad_media": 0.4, "estabilidad_alta": 15.9, "sequedad_alta": 2.4, "t850": 13.3, "t700": 3.9, "t500": -11.9, "rh850": 97.3, "rh700": 84.3, "td850_estimado": 12.9, "td700_estimado": 1.5}}, {"type": "Feature", "geometry": {"type": "Point", "coordinates": [-1.0, 37.75]}, "properties": {"haines_bajo": 3, "haines_medio": 3, "haines_alto": 2, "estabilidad_baja": 5.9, "sequedad_baja": 1.9, "estabilidad_media": 9.7, "sequedad_media": 1.9, "estabilidad_alta": 16.3, "sequedad_alta": 3.4, "t850": 14.0, "t700": 4.3, "t500": -11.9, "rh850": 88.6, "rh700": 78.5, "td850_estimado": 12.2, "td700_estimado": 0.9}}, {"type": "Feature", "geometry": {"type": "Point", "coordinates": [-0.75, 37.75]}, "properties": {"haines_bajo": 3, "haines_medio": 3, "haines_alto": 2, "estabilidad_baja": 4.6, "sequedad_baja": 3.2, "estabilidad_media": 10.0, "sequedad_media": 3.2, "estabilidad_alta": 16.7, "sequedad_alta": 4.0, "t850": 14.7, "t700": 4.7, "t500": -12.0, "rh850": 81.3, "rh700": 75.3, "td850_estimado": 11.5, "td700_estimado": 0.7}}, {"type": "Feature", "geometry": {"type": "Point", "coordinates": [-0.5, 37.75]}, "properties": {"haines_bajo": 3, "haines_medio": 4, "haines_alto": 2, "estabilidad_baja": 4.4, "sequedad_baja": 4.9, "estabilidad_media": 10.8, "sequedad_media": 4.9, "estabilidad_alta": 16.9, "sequedad_alta": 3.9, "t850": 15.5, "t700": 4.8, "t500": -12.2, "rh850": 72.4, "rh700": 76.1, "td850_estimado": 10.6, "td700_estimado": 0.9}}, {"type": "Feature", "geometry": {"type": "Point", "coordinates": [-0.25, 37.75]}, "properties": {"haines_bajo": 4, "haines_medio": 5, "haines_alto": 2, "estabilidad_baja": 3.5, "sequedad_baja": 6.2, "estabilidad_media": 11.6, "sequedad_media": 6.2, "estabilidad_alta": 16.6, "sequedad_alta": 3.0, "t850": 16.1, "t700": 4.5, "t500": -12.1, "rh850": 66.6, "rh700": 81.1, "td850_estimado": 9.9, "td700_estimado": 1.6}}, {"type": "Feature", "geometry": {"type": "Point", "coordinates": [0.0, 37.75]}, "properties": {"haines_bajo": 3, "haines_medio": 5, "haines_alto": 2, "estabilidad_baja": 2.6, "sequedad_baja": 7.2, "estabilidad_media": 11.6, "sequedad_media": 7.2, "estabilidad_alta": 16.6, "sequedad_alta": 2.4, "t850": 16.2, "t700": 4.5, "t500": -12.1, "rh850": 62.3, "rh700": 84.4, "td850_estimado": 9.0, "td700_estimado": 2.1}}, {"type": "Feature", "geometry": {"type": "Point", "coordinates": [0.25, 37.75]}, "properties": {"haines_bajo": 3, "haines_medio": 5, "haines_alto": 3, "estabilidad_baja": 3.0, "sequedad_baja": 8.3, "estabilidad_media": 11.6, "sequedad_media": 8.3, "estabilidad_alta": 17.3, "sequedad_alta": 2.8, "t850": 16.2, "t700": 4.6, "t500": -12.6, "rh850": 57.8, "rh700": 82.2, "td850_estimado": 7.9, "td700_estimado": 1.9}}, {"type": "Feature", "geometry": {"type": "Point", "coordinates": [0.5, 37.75]}, "properties": {"haines_bajo": 5, "haines_medio": 5, "haines_alto": 3, "estabilidad_baja": 3.4, "sequedad_baja": 9.0, "estabilidad_media": 11.6, "sequedad_media": 9.0, "estabilidad_alta": 17.7, "sequedad_alta": 3.3, "t850": 16.3, "t700": 4.7, "t500": -13.1, "rh850": 55.2, "rh700": 79.0, "td850_estimado": 7.3, "td700_estimado": 1.3}}, {"type": "Feature", "geometry": {"type": "Point", "coordinates": [0.75, 37.75]}, "properties": {"haines_bajo": 5, "haines_medio": 5, "haines_alto": 3, "estabilidad_baja": 3.9, "sequedad_baja": 9.5, "estabilidad_media": 11.8, "sequedad_media": 9.5, "estabilidad_alta": 17.9, "sequedad_alta": 3.5, "t850": 16.5, "t700": 4.7, "t500": -13.2, "rh850": 53.5, "rh700": 78.1, "td850_estimado": 7.0, "td700_estimado": 1.2}}, {"type": "Feature", "geometry": {"type": "Point", "coordinates": [1.0, 37.75]}, "properties": {"haines_bajo": 5, "haines_medio": 5, "haines_alto": 3, "estabilidad_baja": 4.3, "sequedad_baja": 9.2, "estabilidad_media": 11.9, "sequedad_media": 9.2, "estabilidad_alta": 18.1, "sequedad_alta": 3.5, "t850": 16.7, "t700": 4.8, "t500": -13.3, "rh850": 54.4, "rh700": 77.8, "td850_estimado": 7.5, "td700_estimado": 1.3}}, {"type": "Feature", "geometry": {"type": "Point", "coordinates": [-2.0, 38.0]}, "properties": {"haines_bajo": 4, "haines_medio": 4, "haines_alto": 2, "estabilidad_baja": 7.6, "sequedad_baja": 3.8, "estabilidad_media": 10.8, "sequedad_media": 3.8, "estabilidad_alta": 14.6, "sequedad_alta": 0.4, "t850": 13.7, "t700": 2.9, "t500": -11.8, "rh850": 77.8, "rh700": 97.1, "td850_estimado": 9.9, "td700_estimado": 2.5}}, {"type": "Feature", "geometry": {"type": "Point", "coordinates": [-1.75, 38.0]}, "properties": {"haines_bajo": 3, "haines_medio": 4, "haines_alto": 2, "estabilidad_baja": 6.6, "sequedad_baja": 3.5, "estabilidad_media": 10.9, "sequedad_media": 3.5, "estabilidad_alta": 14.4, "sequedad_alta": 0.5, "t850": 13.9, "t700": 3.0, "t500": -11.4, "rh850": 79.2, "rh700": 96.6, "td850_estimado": 10.4, "td700_estimado": 2.5}}, {"type": "Feature", "geometry": {"type": "Point", "coordinates": [-1.5, 38.0]}, "properties": {"haines_bajo": 3, "haines_medio": 4, "haines_alto": 2, "estabilidad_baja": 6.3, "sequedad_baja": 3.1, "estabilidad_media": 10.7, "sequedad_media": 3.1, "estabilidad_alta": 14.7, "sequedad_alta": 0.4, "t850": 13.9, "t700": 3.3, "t500": -11.4, "rh850": 81.6, "rh700": 96.9, "td850_estimado": 10.8, "td700_estimado": 2.8}}, {"type": "Feature", "geometry": {"type": "Point", "coordinates": [-1.25, 38.0]}, "properties": {"haines_bajo": 3, "haines_medio": 3, "haines_alto": 2, "estabilidad_baja": 7.0, "sequedad_baja": 0.9, "estabilidad_media": 9.9, "sequedad_media": 0.9, "estabilidad_alta": 14.8, "sequedad_alta": 0.8, "t850": 13.3, "t700": 3.4, "t500": -11.4, "rh850": 94.0, "rh700": 94.2, "td850_estimado": 12.4, "td700_estimado": 2.5}}, {"type": "Feature", "geometry": {"type": "Point", "coordinates": [-1.0, 38.0]}, "properties": {"haines_bajo": 3, "haines_medio": 3, "haines_alto": 2, "estabilidad_baja": 6.9, "sequedad_baja": 1.1, "estabilidad_media": 9.2, "sequedad_media": 1.1, "estabilidad_alta": 15.9, "sequedad_alta": 3.1, "t850": 13.4, "t700": 4.2, "t500": -11.7, "rh850": 92.9, "rh700": 80.0, "td850_estimado": 12.2, "td700_estimado": 1.1}}, {"type": "Feature", "geometry": {"type": "Point", "coordinates": [-0.75, 38.0]}, "properties": {"haines_bajo": 3, "haines_medio": 3, "haines_alto": 2, "estabilidad_baja": 4.8, "sequedad_baja": 3.5, "estabilidad_media": 9.7, "sequedad_media": 3.5, "estabilidad_alta": 16.2, "sequedad_alta": 4.2, "t850": 14.3, "t700": 4.5, "t500": -11.7, "rh850": 79.5, "rh700": 74.2, "td850_estimado": 10.8, "td700_estimado": 0.3}}, {"type": "Feature", "geometry": {"type": "Point", "coordinates": [-0.5, 38.0]}, "properties": {"haines_bajo": 4, "haines_medio": 5, "haines_alto": 2, "estabilidad_baja": 4.4, "sequedad_baja": 5.0, "estabilidad_media": 10.4, "sequedad_media": 5.0, "estabilidad_alta": 16.3, "sequedad_alta": 4.2, "t850": 14.8, "t700": 4.4, "t500": -11.8, "rh850": 71.9, "rh700": 74.4, "td850_estimado": 9.8, "td700_estimado": 0.3}}, {"type": "Feature", "geometry": {"type": "Point", "coordinates": [-0.25, 38.0]}, "properties": {"haines_bajo": 4, "haines_medio": 5, "haines_alto": 2, "estabilidad_baja": 3.5, "sequedad_baja": 6.1, "estabilidad_media": 11.2, "sequedad_media": 6.1, "estabilidad_alta": 16.1, "sequedad_alta": 2.5, "t850": 15.4, "t700": 4.1, "t500": -12.0, "rh850": 67.2, "rh700": 83.5, "td850_estimado": 9.3, "td700_estimado": 1.6}}, {"type": "Feature", "geometry": {"type": "Point", "coordinates": [0.0, 38.0]}, "properties": {"haines_bajo": 3, "haines_medio": 5, "haines_alto": 2, "estabilidad_baja": 3.0, "sequedad_baja": 6.2, "estabilidad_media": 11.2, "sequedad_media": 6.2, "estabilidad_alta": 16.4, "sequedad_alta": 2.3, "t850": 15.5, "t700": 4.3, "t500": -12.1, "rh850": 66.5, "rh700": 84.8, "td850_estimado": 9.3, "td700_estimado": 2.0}}, {"type": "Feature", "geometry": {"type": "Point", "coordinates": [0.25, 38.0]}, "properties": {"haines_bajo": 3, "haines_medio": 5, "haines_alto": 3, "estabilidad_baja": 2.9, "sequedad_baja": 6.9, "estabilidad_media": 11.1, "sequedad_media": 6.9, "estabilidad_alta": 17.1, "sequedad_alta": 3.1, "t850": 15.7, "t700": 4.5, "t500": -12.6, "rh850": 63.4, "rh700": 80.4, "td850_estimado": 8.8, "td700_estimado": 1.5}}, {"type": "Feature", "geometry": {"type": "Point", "coordinates": [0.5, 38.0]}, "properties": {"haines_bajo": 3, "haines_medio": 5, "haines_alto": 3, "estabilidad_baja": 3.0, "sequedad_baja": 7.9, "estabilidad_media": 11.3, "sequedad_media": 7.9, "estabilidad_alta": 17.7, "sequedad_alta": 4.1, "t850": 16.0, "t700": 4.6, "t500": -13.0, "rh850": 59.3, "rh700": 74.5, "td850_estimado": 8.0, "td700_estimado": 0.5}}, {"type": "Feature", "geometry": {"type": "Point", "coordinates": [0.75, 38.0]}, "properties": {"haines_bajo": 5, "haines_medio": 5, "haines_alto": 3, "estabilidad_baja": 3.2, "sequedad_baja": 9.1, "estabilidad_media": 11.8, "sequedad_media": 9.1, "estabilidad_alta": 18.0, "sequedad_alta": 3.8, "t850": 16.4, "t700": 4.6, "t500": -13.4, "rh850": 55.0, "rh700": 76.6, "td850_estimado": 7.3, "td700_estimado": 0.8}}, {"type": "Feature", "geometry": {"type": "Point", "coordinates": [1.0, 38.0]}, "properties": {"haines_bajo": 5, "haines_medio": 5, "haines_alto": 3, "estabilidad_baja": 3.5, "sequedad_baja": 9.7, "estabilidad_media": 11.9, "sequedad_media": 9.7, "estabilidad_alta": 18.2, "sequedad_alta": 3.3, "t850": 16.7, "t700": 4.7, "t500": -13.5, "rh850": 52.6, "rh700": 79.1, "td850_estimado": 6.9, "td700_estimado": 1.4}}, {"type": "Feature", "geometry": {"type": "Point", "coordinates": [-2.0, 38.25]}, "properties": {"haines_bajo": 3, "haines_medio": 4, "haines_alto": 2, "estabilidad_baja": 6.5, "sequedad_baja": 4.0, "estabilidad_media": 10.7, "sequedad_media": 4.0, "estabilidad_alta": 13.9, "sequedad_alta": 0.1, "t850": 12.9, "t700": 2.3, "t500": -11.7, "rh850": 76.9, "rh700": 99.0, "td850_estimado": 9.0, "td700_estimado": 2.1}}, {"type": "Feature", "geometry": {"type": "Point", "coordinates": [-1.75, 38.25]}, "properties": {"haines_bajo": 4, "haines_medio": 4, "haines_alto": 2, "estabilidad_baja": 8.8, "sequedad_baja": 1.7, "estabilidad_media": 10.6, "sequedad_media": 1.7, "estabilidad_alta": 14.6, "sequedad_alta": 0.7, "t850": 13.4, "t700": 2.7, "t500": -11.8, "rh850": 89.5, "rh700": 95.1, "td850_estimado": 11.7, "td700_estimado": 2.0}}, {"type": "Feature", "geometry": {"type": "Point", "coordinates": [-1.5, 38.25]}, "properties": {"haines_bajo": 3, "haines_medio": 4, "haines_alto": 2, "estabilidad_baja": 6.5, "sequedad_baja": 2.7, "estabilidad_media": 11.5, "sequedad_media": 2.7, "estabilidad_alta": 14.1, "sequedad_alta": 0.4, "t850": 13.9, "t700": 2.4, "t500": -11.7, "rh850": 84.0, "rh700": 97.5, "td850_estimado": 11.3, "td700_estimado": 2.1}}, {"type": "Feature", "geometry": {"type": "Point", "coordinates": [-1.25, 38.25]}, "properties": {"haines_bajo": 4, "haines_medio": 4, "haines_alto": 2, "estabilidad_baja": 7.7, "sequedad_baja": 1.1, "estabilidad_media": 11.2, "sequedad_media": 1.1, "estabilidad_alta": 13.7, "sequedad_alta": 1.7, "t850": 13.3, "t700": 2.1, "t500": -11.6, "rh850": 92.8, "rh700": 88.3, "td850_estimado": 12.2, "td700_estimado": 0.4}}, {"type": "Feature", "geometry": {"type": "Point", "coordinates": [-1.0, 38.25]}, "properties": {"haines_bajo": 4, "haines_medio": 3, "haines_alto": 2, "estabilidad_baja": 7.9, "sequedad_baja": 0.8, "estabilidad_media": 9.6, "sequedad_media": 0.8, "estabilidad_alta": 15.0, "sequedad_alta": 6.5, "t850": 13.1, "t700": 3.5, "t500": -11.5, "rh850": 95.2, "rh700": 62.5, "td850_estimado": 12.4, "td700_estimado": -3.0}}, {"type": "Feature", "geometry": {"type": "Point", "coordinates": [-0.75, 38.25]}, "properties": {"haines_bajo": 3, "haines_medio": 3, "haines_alto": 2, "estabilidad_baja": 5.8, "sequedad_baja": 3.4, "estabilidad_media": 9.8, "sequedad_media": 3.4, "estabilidad_alta": 15.6, "sequedad_alta": 6.3, "t850": 13.8, "t700": 4.1, "t500": -11.5, "rh850": 79.7, "rh700": 63.7, "td850_estimado": 10.4, "td700_estimado": -2.2}}, {"type": "Feature", "geometry": {"type": "Point", "coordinates": [-0.5, 38.25]}, "properties": {"haines_bajo": 3, "haines_medio": 3, "haines_alto": 2, "estabilidad_baja": 4.9, "sequedad_baja": 4.7, "estabilidad_media": 9.7, "sequedad_media": 4.7, "estabilidad_alta": 16.0, "sequedad_alta": 5.8, "t850": 14.1, "t700": 4.4, "t500": -11.6, "rh850": 73.3, "rh700": 66.1, "td850_estimado": 9.4, "td700_estimado": -1.4}}, {"type": "Feature", "geometry": {"type": "Point", "coordinates": [-0.25, 38.25]}, "properties": {"haines_bajo": 4, "haines_medio": 5, "haines_alto": 2, "estabilidad_baja": 4.6, "sequedad_baja": 5.2, "estabilidad_media": 10.2, "sequedad_media": 5.2, "estabilidad_alta": 16.1, "sequedad_alta": 4.3, "t850": 14.5, "t700": 4.3, "t500": -11.8, "rh850": 70.9, "rh700": 73.7, "td850_estimado": 9.3, "td700_estimado": 0.0}}, {"type": "Feature", "geometry": {"type": "Point", "coordinates": [0.0, 38.25]}, "properties": {"haines_bajo": 4, "haines_medio": 5, "haines_alto": 2, "estabilidad_baja": 4.5, "sequedad_baja": 5.3, "estabilidad_media": 10.3, "sequedad_media": 5.3, "estabilidad_alta": 16.5, "sequedad_alta": 3.7, "t850": 14.7, "t700": 4.4, "t500": -12.1, "rh850": 70.5, "rh700": 76.7, "td850_estimado": 9.4, "td700_estimado": 0.6}}, {"type": "Feature", "geometry": {"type": "Point", "coordinates": [0.25, 38.25]}, "properties": {"haines_bajo": 4, "haines_medio": 5, "haines_alto": 3, "estabilidad_baja": 3.5, "sequedad_baja": 6.2, "estabilidad_media": 10.7, "sequedad_media": 6.2, "estabilidad_alta": 17.0, "sequedad_alta": 4.7, "t850": 15.2, "t700": 4.5, "t500": -12.5, "rh850": 66.7, "rh700": 71.7, "td850_estimado": 9.1, "td700_estimado": -0.2}}, {"type": "Feature", "geometry": {"type": "Point", "coordinates": [0.5, 38.25]}, "properties": {"haines_bajo": 4, "haines_medio": 5, "haines_alto": 3, "estabilidad_baja": 3.1, "sequedad_baja": 7.1, "estabilidad_media": 11.1, "sequedad_media": 7.1, "estabilidad_alta": 17.5, "sequedad_alta": 5.1, "t850": 15.7, "t700": 4.5, "t500": -13.0, "rh850": 62.5, "rh700": 69.5, "td850_estimado": 8.5, "td700_estimado": -0.6}}, {"type": "Feature", "geometry": {"type": "Point", "coordinates": [0.75, 38.25]}, "properties": {"haines_bajo": 4, "haines_medio": 5, "haines_alto": 3, "estabilidad_baja": 3.0, "sequedad_baja": 8.3, "estabilidad_media": 11.6, "sequedad_media": 8.3, "estabilidad_alta": 17.8, "sequedad_alta": 3.2, "t850": 16.1, "t700": 4.5, "t500": -13.3, "rh850": 57.8, "rh700": 79.7, "td850_estimado": 7.8, "td700_estimado": 1.3}}, {"type": "Feature", "geometry": {"type": "Point", "coordinates": [1.0, 38.25]}, "properties": {"haines_bajo": 5, "haines_medio": 5, "haines_alto": 3, "estabilidad_baja": 3.3, "sequedad_baja": 9.4, "estabilidad_media": 11.8, "sequedad_media": 9.4, "estabilidad_alta": 18.2, "sequedad_alta": 3.2, "t850": 16.4, "t700": 4.6, "t500": -13.6, "rh850": 53.8, "rh700": 79.7, "td850_estimado": 7.0, "td700_estimado": 1.4}}, {"type": "Feature", "geometry": {"type": "Point", "coordinates": [-2.0, 38.5]}, "properties": {"haines_bajo": 4, "haines_medio": 5, "haines_alto": 2, "estabilidad_baja": 6.0, "sequedad_baja": 6.5, "estabilidad_media": 11.8, "sequedad_media": 6.5, "estabilidad_alta": 13.9, "sequedad_alta": 0.2, "t850": 13.9, "t700": 2.1, "t500": -11.8, "rh850": 64.8, "rh700": 98.8, "td850_estimado": 7.4, "td700_estimado": 1.9}}, {"type": "Feature", "geometry": {"type": "Point", "coordinates": [-1.75, 38.5]}, "properties": {"haines_bajo": 4, "haines_medio": 4, "haines_alto": 2, "estabilidad_baja": 8.3, "sequedad_baja": 4.1, "estabilidad_media": 11.1, "sequedad_media": 4.1, "estabilidad_alta": 14.1, "sequedad_alta": 0.4, "t850": 13.4, "t700": 2.4, "t500": -11.8, "rh850": 76.4, "rh700": 97.4, "td850_estimado": 9.4, "td700_estimado": 2.0}}, {"type": "Feature", "geometry": {"type": "Point", "coordinates": [-1.5, 38.5]}, "properties": {"haines_bajo": 4, "haines_medio": 4, "haines_alto": 2, "estabilidad_baja": 8.3, "sequedad_baja": 1.8, "estabilidad_media": 11.4, "sequedad_media": 1.8, "estabilidad_alta": 13.6, "sequedad_alta": 0.6, "t850": 13.3, "t700": 1.9, "t500": -11.8, "rh850": 88.7, "rh700": 95.9, "td850_estimado": 11.4, "td700_estimado": 1.3}}, {"type": "Feature", "geometry": {"type": "Point", "coordinates": [-1.25, 38.5]}, "properties": {"haines_bajo": 4, "haines_medio": 4, "haines_alto": 2, "estabilidad_baja": 9.0, "sequedad_baja": 1.2, "estabilidad_media": 10.8, "sequedad_media": 1.2, "estabilidad_alta": 13.5, "sequedad_alta": 1.9, "t850": 13.1, "t700": 2.3, "t500": -11.1, "rh850": 92.6, "rh700": 87.3, "td850_estimado": 12.0, "td700_estimado": 0.4}}, {"type": "Feature", "geometry": {"type": "Point", "coordinates": [-1.0, 38.5]}, "properties": {"haines_bajo": 4, "haines_medio": 4, "haines_alto": 2, "estabilidad_baja": 9.2, "sequedad_baja": 1.1, "estabilidad_media": 10.1, "sequedad_media": 1.1, "estabilidad_alta": 14.4, "sequedad_alta": 3.7, "t850": 13.2, "t700": 3.2, "t500": -11.2, "rh850": 93.3, "rh700": 76.5, "td850_estimado": 12.2, "td700_estimado": -0.6}}, {"type": "Feature", "geometry": {"type": "Point", "coordinates": [-0.75, 38.5]}, "properties": {"haines_bajo": 4, "haines_medio": 3, "haines_alto": 2, "estabilidad_baja": 8.9, "sequedad_baja": 1.1, "estabilidad_media": 9.4, "sequedad_media": 1.1, "estabilidad_alta": 15.1, "sequedad_alta": 4.1, "t850": 13.2, "t700": 3.7, "t500": -11.4, "rh850": 93.3, "rh700": 74.5, "td850_estimado": 12.1, "td700_estimado": -0.4}}, {"type": "Feature", "geometry": {"type": "Point", "coordinates": [-0.5, 38.5]}, "properties": {"haines_bajo": 4, "haines_medio": 5, "haines_alto": 2, "estabilidad_baja": 6.1, "sequedad_baja": 5.1, "estabilidad_media": 10.4, "sequedad_media": 5.1, "estabilidad_alta": 15.7, "sequedad_alta": 4.8, "t850": 14.4, "t700": 4.0, "t500": -11.7, "rh850": 71.5, "rh700": 70.8, "td850_estimado": 9.3, "td700_estimado": -0.8}}, {"type": "Feature", "geometry": {"type": "Point", "coordinates": [-0.25, 38.5]}, "properties": {"haines_bajo": 4, "haines_medio": 5, "haines_alto": 2, "estabilidad_baja": 5.3, "sequedad_baja": 5.0, "estabilidad_media": 10.1, "sequedad_media": 5.0, "estabilidad_alta": 16.2, "sequedad_alta": 5.1, "t850": 14.1, "t700": 4.0, "t500": -12.2, "rh850": 71.8, "rh700": 69.5, "td850_estimado": 9.1, "td700_estimado": -1.0}}, {"type": "Feature", "geometry": {"type": "Point", "coordinates": [0.0, 38.5]}, "properties": {"haines_bajo": 4, "haines_medio": 5, "haines_alto": 2, "estabilidad_baja": 4.7, "sequedad_baja": 6.0, "estabilidad_media": 10.5, "sequedad_media": 6.0, "estabilidad_alta": 16.5, "sequedad_alta": 4.4, "t850": 14.7, "t700": 4.2, "t500": -12.3, "rh850": 67.3, "rh700": 72.8, "td850_estimado": 8.7, "td700_estimado": -0.3}}, {"type": "Feature", "geometry": {"type": "Point", "coordinates": [0.25, 38.5]}, "properties": {"haines_bajo": 4, "haines_medio": 5, "haines_alto": 2, "estabilidad_baja": 4.4, "sequedad_baja": 6.3, "estabilidad_media": 10.8, "sequedad_media": 6.3, "estabilidad_alta": 16.9, "sequedad_alta": 4.4, "t850": 15.1, "t700": 4.3, "t500": -12.6, "rh850": 66.0, "rh700": 72.9, "td850_estimado": 8.7, "td700_estimado": -0.2}}, {"type": "Feature", "geometry": {"type": "Point", "coordinates": [0.5, 38.5]}, "properties": {"haines_bajo": 4, "haines_medio": 5, "haines_alto": 3, "estabilidad_baja": 3.7, "sequedad_baja": 6.5, "estabilidad_media": 10.9, "sequedad_media": 6.5, "estabilidad_alta": 17.3, "sequedad_alta": 3.0, "t850": 15.3, "t700": 4.3, "t500": -13.0, "rh850": 65.3, "rh700": 80.7, "td850_estimado": 8.8, "td700_estimado": 1.3}}, {"type": "Feature", "geometry": {"type": "Point", "coordinates": [0.75, 38.5]}, "properties": {"haines_bajo": 4, "haines_medio": 5, "haines_alto": 3, "estabilidad_baja": 3.5, "sequedad_baja": 7.1, "estabilidad_media": 11.2, "sequedad_media": 7.1, "estabilidad_alta": 17.8, "sequedad_alta": 2.6, "t850": 15.6, "t700": 4.4, "t500": -13.4, "rh850": 62.6, "rh700": 83.1, "td850_estimado": 8.5, "td700_estimado": 1.8}}, {"type": "Feature", "geometry": {"type": "Point", "coordinates": [1.0, 38.5]}, "properties": {"haines_bajo": 4, "haines_medio": 5, "haines_alto": 3, "estabilidad_baja": 3.4, "sequedad_baja": 8.5, "estabilidad_media": 11.5, "sequedad_media": 8.5, "estabilidad_alta": 18.0, "sequedad_alta": 3.4, "t850": 16.0, "t700": 4.6, "t500": -13.4, "rh850": 57.1, "rh700": 78.8, "td850_estimado": 7.5, "td700_estimado": 1.2}}, {"type": "Feature", "geometry": {"type": "Point", "coordinates": [-2.0, 38.75]}, "properties": {"haines_bajo": 5, "haines_medio": 5, "haines_alto": 2, "estabilidad_baja": 5.9, "sequedad_baja": 9.6, "estabilidad_media": 12.7, "sequedad_media": 9.6, "estabilidad_alta": 13.9, "sequedad_alta": 0.5, "t850": 14.7, "t700": 2.0, "t500": -11.9, "rh850": 52.6, "rh700": 96.6, "td850_estimado": 5.1, "td700_estimado": 1.5}}, {"type": "Feature", "geometry": {"type": "Point", "coordinates": [-1.75, 38.75]}, "properties": {"haines_bajo": 4, "haines_medio": 5, "haines_alto": 2, "estabilidad_baja": 6.9, "sequedad_baja": 6.8, "estabilidad_media": 12.3, "sequedad_media": 6.8, "estabilidad_alta": 13.5, "sequedad_alta": 0.7, "t850": 14.0, "t700": 1.7, "t500": -11.9, "rh850": 63.8, "rh700": 95.4, "td850_estimado": 7.3, "td700_estimado": 1.0}}, {"type": "Feature", "geometry": {"type": "Point", "coordinates": [-1.5, 38.75]}, "properties": {"haines_bajo": 4, "haines_medio": 4, "haines_alto": 2, "estabilidad_baja": 8.6, "sequedad_baja": 1.9, "estabilidad_media": 11.3, "sequedad_media": 1.9, "estabilidad_alta": 13.7, "sequedad_alta": 2.4, "t850": 13.2, "t700": 2.0, "t500": -11.7, "rh850": 88.3, "rh700": 84.4, "td850_estimado": 11.3, "td700_estimado": -0.4}}, {"type": "Feature", "geometry": {"type": "Point", "coordinates": [-1.25, 38.75]}, "properties": {"haines_bajo": 4, "haines_medio": 4, "haines_alto": 2, "estabilidad_baja": 8.7, "sequedad_baja": 2.7, "estabilidad_media": 10.6, "sequedad_media": 2.7, "estabilidad_alta": 14.7, "sequedad_alta": 3.8, "t850": 13.7, "t700": 3.2, "t500": -11.5, "rh850": 84.0, "rh700": 76.1, "td850_estimado": 11.1, "td700_estimado": -0.6}}, {"type": "Feature", "geometry": {"type": "Point", "coordinates": [-1.0, 38.75]}, "properties": {"haines_bajo": 4, "haines_medio": 4, "haines_alto": 2, "estabilidad_baja": 9.1, "sequedad_baja": 2.6, "estabilidad_media": 10.2, "sequedad_media": 2.6, "estabilidad_alta": 15.2, "sequedad_alta": 3.7, "t850": 13.8, "t700": 3.6, "t500": -11.6, "rh850": 84.5, "rh700": 76.6, "td850_estimado": 11.2, "td700_estimado": -0.1}}, {"type": "Feature", "geometry": {"type": "Point", "coordinates": [-0.75, 38.75]}, "properties": {"haines_bajo": 4, "haines_medio": 4, "haines_alto": 2, "estabilidad_baja": 9.1, "sequedad_baja": 2.8, "estabilidad_media": 10.2, "sequedad_media": 2.8, "estabilidad_alta": 15.4, "sequedad_alta": 3.3, "t850": 14.0, "t700": 3.8, "t500": -11.6, "rh850": 83.5, "rh700": 79.2, "td850_estimado": 11.3, "td700_estimado": 0.5}}, {"type": "Feature", "geometry": {"type": "Point", "coordinates": [-0.5, 38.75]}, "properties": {"haines_bajo": 4, "haines_medio": 3, "haines_alto": 2, "estabilidad_baja": 8.9, "sequedad_baja": 2.5, "estabilidad_media": 9.7, "sequedad_media": 2.5, "estabilidad_alta": 16.4, "sequedad_alta": 5.5, "t850": 14.1, "t700": 4.4, "t500": -12.0, "rh850": 85.0, "rh700": 67.7, "td850_estimado": 11.6, "td700_estimado": -1.0}}, {"type": "Feature", "geometry": {"type": "Point", "coordinates": [-0.25, 38.75]}, "properties": {"haines_bajo": 4, "haines_medio": 3, "haines_alto": 2, "estabilidad_baja": 8.3, "sequedad_baja": 1.4, "estabilidad_media": 9.7, "sequedad_media": 1.4, "estabilidad_alta": 16.8, "sequedad_alta": 5.7, "t850": 14.1, "t700": 4.4, "t500": -12.4, "rh850": 91.4, "rh700": 66.5, "td850_estimado": 12.7, "td700_estimado": -1.3}}, {"type": "Feature", "geometry": {"type": "Point", "coordinates": [0.0, 38.75]}, "properties": {"haines_bajo": 3, "haines_medio": 4, "haines_alto": 2, "estabilidad_baja": 5.2, "sequedad_baja": 4.7, "estabilidad_media": 10.4, "sequedad_media": 4.7, "estabilidad_alta": 16.7, "sequedad_alta": 4.0, "t850": 14.6, "t700": 4.1, "t500": -12.5, "rh850": 73.3, "rh700": 75.2, "td850_estimado": 9.9, "td700_estimado": 0.1}}, {"type": "Feature", "geometry": {"type": "Point", "coordinates": [0.25, 38.75]}, "properties": {"haines_bajo": 4, "haines_medio": 5, "haines_alto": 3, "estabilidad_baja": 4.3, "sequedad_baja": 6.4, "estabilidad_media": 10.5, "sequedad_media": 6.4, "estabilidad_alta": 17.2, "sequedad_alta": 4.5, "t850": 14.8, "t700": 4.3, "t500": -12.9, "rh850": 65.3, "rh700": 72.3, "td850_estimado": 8.4, "td700_estimado": -0.2}}, {"type": "Feature", "geometry": {"type": "Point", "coordinates": [0.5, 38.75]}, "properties": {"haines_bajo": 4, "haines_medio": 5, "haines_alto": 3, "estabilidad_baja": 3.8, "sequedad_baja": 6.6, "estabilidad_media": 10.7, "sequedad_media": 6.6, "estabilidad_alta": 17.7, "sequedad_alta": 3.6, "t850": 15.0, "t700": 4.4, "t500": -13.4, "rh850": 64.5, "rh700": 77.7, "td850_estimado": 8.4, "td700_estimado": 0.8}}, {"type": "Feature", "geometry": {"type": "Point", "coordinates": [0.75, 38.75]}, "properties": {"haines_bajo": 4, "haines_medio": 5, "haines_alto": 3, "estabilidad_baja": 3.6, "sequedad_baja": 7.0, "estabilidad_media": 10.9, "sequedad_media": 7.0, "estabilidad_alta": 17.9, "sequedad_alta": 3.4, "t850": 15.4, "t700": 4.4, "t500": -13.5, "rh850": 62.9, "rh700": 78.3, "td850_estimado": 8.4, "td700_estimado": 1.0}}, {"type": "Feature", "geometry": {"type": "Point", "coordinates": [1.0, 38.75]}, "properties": {"haines_bajo": 4, "haines_medio": 5, "haines_alto": 3, "estabilidad_baja": 3.6, "sequedad_baja": 7.7, "estabilidad_media": 11.3, "sequedad_media": 7.7, "estabilidad_alta": 17.9, "sequedad_alta": 3.7, "t850": 15.8, "t700": 4.5, "t500": -13.3, "rh850": 60.1, "rh700": 77.0, "td850_estimado": 8.1, "td700_estimado": 0.8}}, {"type": "Feature", "geometry": {"type": "Point", "coordinates": [-2.0, 39.0]}, "properties": {"haines_bajo": 5, "haines_medio": 5, "haines_alto": 2, "estabilidad_baja": 8.6, "sequedad_baja": 6.6, "estabilidad_media": 12.9, "sequedad_media": 6.6, "estabilidad_alta": 14.2, "sequedad_alta": 3.6, "t850": 14.9, "t700": 2.0, "t500": -12.2, "rh850": 64.8, "rh700": 77.2, "td850_estimado": 8.3, "td700_estimado": -1.6}}, {"type": "Feature", "geometry": {"type": "Point", "coordinates": [-1.75, 39.0]}, "properties": {"haines_bajo": 5, "haines_medio": 5, "haines_alto": 2, "estabilidad_baja": 8.5, "sequedad_baja": 5.3, "estabilidad_media": 12.3, "sequedad_media": 5.3, "estabilidad_alta": 13.7, "sequedad_alta": 1.2, "t850": 14.0, "t700": 1.7, "t500": -11.9, "rh850": 70.4, "rh700": 92.0, "td850_estimado": 8.7, "td700_estimado": 0.6}}, {"type": "Feature", "geometry": {"type": "Point", "coordinates": [-1.5, 39.0]}, "properties": {"haines_bajo": 4, "haines_medio": 4, "haines_alto": 2, "estabilidad_baja": 8.3, "sequedad_baja": 4.6, "estabilidad_media": 11.6, "sequedad_media": 4.6, "estabilidad_alta": 14.3, "sequedad_alta": 2.8, "t850": 14.2, "t700": 2.5, "t500": -11.7, "rh850": 73.7, "rh700": 81.7, "td850_estimado": 9.6, "td700_estimado": -0.3}}, {"type": "Feature", "geometry": {"type": "Point", "coordinates": [-1.25, 39.0]}, "properties": {"haines_bajo": 4, "haines_medio": 4, "haines_alto": 2, "estabilidad_baja": 8.4, "sequedad_baja": 4.1, "estabilidad_media": 11.3, "sequedad_media": 4.1, "estabilidad_alta": 15.0, "sequedad_alta": 5.0, "t850": 14.5, "t700": 3.2, "t500": -11.8, "rh850": 76.3, "rh700": 69.7, "td850_estimado": 10.4, "td700_estimado": -1.8}}, {"type": "Feature", "geometry": {"type": "Point", "coordinates": [-1.0, 39.0]}, "properties": {"haines_bajo": 4, "haines_medio": 4, "haines_alto": 2, "estabilidad_baja": 8.8, "sequedad_baja": 3.2, "estabilidad_media": 10.4, "sequedad_media": 3.2, "estabilidad_alta": 15.5, "sequedad_alta": 7.3, "t850": 14.2, "t700": 3.8, "t500": -11.7, "rh850": 81.0, "rh700": 59.1, "td850_estimado": 10.9, "td700_estimado": -3.5}}, {"type": "Feature", "geometry": {"type": "Point", "coordinates": [-0.75, 39.0]}, "properties": {"haines_bajo": 4, "haines_medio": 3, "haines_alto": 2, "estabilidad_baja": 9.0, "sequedad_baja": 1.0, "estabilidad_media": 8.7, "sequedad_media": 1.0, "estabilidad_alta": 16.4, "sequedad_alta": 9.4, "t850": 13.1, "t700": 4.4, "t500": -12.0, "rh850": 93.5, "rh700": 50.6, "td850_estimado": 12.1, "td700_estimado": -5.0}}, {"type": "Feature", "geometry": {"type": "Point", "coordinates": [-0.5, 39.0]}, "properties": {"haines_bajo": 4, "haines_medio": 3, "haines_alto": 2, "estabilidad_baja": 7.7, "sequedad_baja": 1.5, "estabilidad_media": 8.8, "sequedad_media": 1.5, "estabilidad_alta": 16.9, "sequedad_alta": 8.3, "t850": 13.3, "t700": 4.5, "t500": -12.3, "rh850": 90.7, "rh700": 55.0, "td850_estimado": 11.8, "td700_estimado": -3.7}}, {"type": "Feature", "geometry": {"type": "Point", "coordinates": [-0.25, 39.0]}, "properties": {"haines_bajo": 3, "haines_medio": 4, "haines_alto": 2, "estabilidad_baja": 4.4, "sequedad_baja": 4.1, "estabilidad_media": 10.3, "sequedad_media": 4.1, "estabilidad_alta": 16.5, "sequedad_alta": 4.3, "t850": 14.5, "t700": 4.2, "t500": -12.3, "rh850": 76.2, "rh700": 73.8, "td850_estimado": 10.4, "td700_estimado": -0.1}}, {"type": "Feature", "geometry": {"type": "Point", "coordinates": [0.0, 39.0]}, "properties": {"haines_bajo": 4, "haines_medio": 5, "haines_alto": 2, "estabilidad_baja": 4.4, "sequedad_baja": 5.6, "estabilidad_media": 10.3, "sequedad_media": 5.6, "estabilidad_alta": 16.9, "sequedad_alta": 4.3, "t850": 14.5, "t700": 4.3, "t500": -12.6, "rh850": 68.9, "rh700": 73.5, "td850_estimado": 8.9, "td700_estimado": -0.0}}, {"type": "Feature", "geometry": {"type": "Point", "coordinates": [0.25, 39.0]}, "properties": {"haines_bajo": 4, "haines_medio": 5, "haines_alto": 3, "estabilidad_baja": 4.0, "sequedad_baja": 6.9, "estabilidad_media": 10.3, "sequedad_media": 6.9, "estabilidad_alta": 17.6, "sequedad_alta": 6.1, "t850": 14.9, "t700": 4.5, "t500": -13.1, "rh850": 63.2, "rh700": 64.8, "td850_estimado": 7.9, "td700_estimado": -1.5}}, {"type": "Feature", "geometry": {"type": "Point", "coordinates": [0.5, 39.0]}, "properties": {"haines_bajo": 4, "haines_medio": 5, "haines_alto": 3, "estabilidad_baja": 3.4, "sequedad_baja": 7.3, "estabilidad_media": 10.5, "sequedad_media": 7.3, "estabilidad_alta": 18.0, "sequedad_alta": 6.9, "t850": 15.1, "t700": 4.6, "t500": -13.4, "rh850": 61.9, "rh700": 60.7, "td850_estimado": 7.8, "td700_estimado": -2.3}}, {"type": "Feature", "geometry": {"type": "Point", "coordinates": [0.75, 39.0]}, "properties": {"haines_bajo": 4, "haines_medio": 5, "haines_alto": 3, "estabilidad_baja": 3.3, "sequedad_baja": 7.7, "estabilidad_media": 10.8, "sequedad_media": 7.7, "estabilidad_alta": 18.0, "sequedad_alta": 6.0, "t850": 15.4, "t700": 4.6, "t500": -13.4, "rh850": 60.3, "rh700": 65.2, "td850_estimado": 7.7, "td700_estimado": -1.4}}, {"type": "Feature", "geometry": {"type": "Point", "coordinates": [1.0, 39.0]}, "properties": {"haines_bajo": 4, "haines_medio": 5, "haines_alto": 3, "estabilidad_baja": 3.6, "sequedad_baja": 8.1, "estabilidad_media": 11.1, "sequedad_media": 8.1, "estabilidad_alta": 17.9, "sequedad_alta": 4.6, "t850": 15.7, "t700": 4.6, "t500": -13.3, "rh850": 58.7, "rh700": 72.1, "td850_estimado": 7.6, "td700_estimado": -0.0}}, {"type": "Feature", "geometry": {"type": "Point", "coordinates": [-2.0, 39.25]}, "properties": {"haines_bajo": 4, "haines_medio": 4, "haines_alto": 2, "estabilidad_baja": 8.9, "sequedad_baja": 4.9, "estabilidad_media": 12.6, "sequedad_media": 4.9, "estabilidad_alta": 14.2, "sequedad_alta": 4.8, "t850": 14.5, "t700": 1.9, "t500": -12.4, "rh850": 72.2, "rh700": 70.4, "td850_estimado": 9.5, "td700_estimado": -3.0}}, {"type": "Feature", "geometry": {"type": "Point", "coordinates": [-1.75, 39.25]}, "properties": {"haines_bajo": 4, "haines_medio": 4, "haines_alto": 2, "estabilidad_baja": 9.1, "sequedad_baja": 4.9, "estabilidad_media": 12.6, "sequedad_media": 4.9, "estabilidad_alta": 14.0, "sequedad_alta": 1.8, "t850": 14.6, "t700": 2.0, "t500": -12.0, "rh850": 72.3, "rh700": 88.0, "td850_estimado": 9.7, "td700_estimado": 0.2}}, {"type": "Feature", "geometry": {"type": "Point", "coordinates": [-1.5, 39.25]}, "properties": {"haines_bajo": 5, "haines_medio": 5, "haines_alto": 2, "estabilidad_baja": 9.2, "sequedad_baja": 5.5, "estabilidad_media": 12.4, "sequedad_media": 5.5, "estabilidad_alta": 14.6, "sequedad_alta": 2.9, "t850": 15.0, "t700": 2.6, "t500": -12.0, "rh850": 69.5, "rh700": 81.0, "td850_estimado": 9.5, "td700_estimado": -0.3}}, {"type": "Feature", "geometry": {"type": "Point", "coordinates": [-1.25, 39.25]}, "properties": {"haines_bajo": 4, "haines_medio": 4, "haines_alto": 2, "estabilidad_baja": 9.3, "sequedad_baja": 4.3, "estabilidad_media": 11.7, "sequedad_media": 4.3, "estabilidad_alta": 15.0, "sequedad_alta": 5.3, "t850": 14.8, "t700": 3.1, "t500": -11.9, "rh850": 75.3, "rh700": 68.0, "td850_estimado": 10.5, "td700_estimado": -2.2}}, {"type": "Feature", "geometry": {"type": "Point", "coordinates": [-1.0, 39.25]}, "properties": {"haines_bajo": 4, "haines_medio": 3, "haines_alto": 2, "estabilidad_baja": 9.3, "sequedad_baja": 2.0, "estabilidad_media": 9.9, "sequedad_media": 2.0, "estabilidad_alta": 15.7, "sequedad_alta": 8.4, "t850": 13.6, "t700": 3.7, "t500": -12.0, "rh850": 87.6, "rh700": 54.4, "td850_estimado": 11.6, "td700_estimado": -4.7}}, {"type": "Feature", "geometry": {"type": "Point", "coordinates": [-0.75, 39.25]}, "properties": {"haines_bajo": 4, "haines_medio": 3, "haines_alto": 2, "estabilidad_baja": 8.7, "sequedad_baja": 0.7, "estabilidad_media": 8.5, "sequedad_media": 0.7, "estabilidad_alta": 16.1, "sequedad_alta": 9.3, "t850": 12.5, "t700": 4.0, "t500": -12.1, "rh850": 95.7, "rh700": 50.6, "td850_estimado": 11.8, "td700_estimado": -5.3}}, {"type": "Feature", "geometry": {"type": "Point", "coordinates": [-0.5, 39.25]}, "properties": {"haines_bajo": 4, "haines_medio": 4, "haines_alto": 2, "estabilidad_baja": 5.3, "sequedad_baja": 5.6, "estabilidad_media": 9.8, "sequedad_media": 5.6, "estabilidad_alta": 16.5, "sequedad_alta": 9.8, "t850": 14.0, "t700": 4.2, "t500": -12.3, "rh850": 69.1, "rh700": 48.9, "td850_estimado": 8.4, "td700_estimado": -5.6}}, {"type": "Feature", "geometry": {"type": "Point", "coordinates": [-0.25, 39.25]}, "properties": {"haines_bajo": 4, "haines_medio": 5, "haines_alto": 2, "estabilidad_baja": 4.1, "sequedad_baja": 6.9, "estabilidad_media": 10.1, "sequedad_media": 6.9, "estabilidad_alta": 16.7, "sequedad_alta": 8.8, "t850": 14.4, "t700": 4.3, "t500": -12.4, "rh850": 63.2, "rh700": 52.6, "td850_estimado": 7.5, "td700_estimado": -4.6}}, {"type": "Feature", "geometry": {"type": "Point", "coordinates": [0.0, 39.25]}, "properties": {"haines_bajo": 4, "haines_medio": 5, "haines_alto": 3, "estabilidad_baja": 4.1, "sequedad_baja": 6.7, "estabilidad_media": 10.3, "sequedad_media": 6.7, "estabilidad_alta": 17.2, "sequedad_alta": 6.3, "t850": 14.6, "t700": 4.3, "t500": -12.9, "rh850": 64.1, "rh700": 63.4, "td850_estimado": 7.9, "td700_estimado": -2.0}}, {"type": "Feature", "geometry": {"type": "Point", "coordinates": [0.25, 39.25]}, "properties": {"haines_bajo": 4, "haines_medio": 5, "haines_alto": 3, "estabilidad_baja": 3.5, "sequedad_baja": 6.9, "estabilidad_media": 10.4, "sequedad_media": 6.9, "estabilidad_alta": 17.6, "sequedad_alta": 5.8, "t850": 14.8, "t700": 4.4, "t500": -13.2, "rh850": 63.5, "rh700": 66.2, "td850_estimado": 7.9, "td700_estimado": -1.4}}, {"type": "Feature", "geometry": {"type": "Point", "coordinates": [0.5, 39.25]}, "properties": {"haines_bajo": 4, "haines_medio": 5, "haines_alto": 3, "estabilidad_baja": 3.1, "sequedad_baja": 7.2, "estabilidad_media": 10.5, "sequedad_media": 7.2, "estabilidad_alta": 17.8, "sequedad_alta": 6.6, "t850": 15.0, "t700": 4.4, "t500": -13.4, "rh850": 62.1, "rh700": 62.1, "td850_estimado": 7.8, "td700_estimado": -2.2}}, {"type": "Feature", "geometry": {"type": "Point", "coordinates": [0.75, 39.25]}, "properties": {"haines_bajo": 4, "haines_medio": 5, "haines_alto": 3, "estabilidad_baja": 3.1, "sequedad_baja": 7.8, "estabilidad_media": 10.9, "sequedad_media": 7.8, "estabilidad_alta": 17.7, "sequedad_alta": 6.1, "t850": 15.3, "t700": 4.4, "t500": -13.3, "rh850": 59.5, "rh700": 64.8, "td850_estimado": 7.4, "td700_estimado": -1.6}}, {"type": "Feature", "geometry": {"type": "Point", "coordinates": [1.0, 39.25]}, "properties": {"haines_bajo": 4, "haines_medio": 5, "haines_alto": 3, "estabilidad_baja": 3.6, "sequedad_baja": 8.5, "estabilidad_media": 11.2, "sequedad_media": 8.5, "estabilidad_alta": 17.7, "sequedad_alta": 4.7, "t850": 15.7, "t700": 4.4, "t500": -13.3, "rh850": 56.9, "rh700": 71.3, "td850_estimado": 7.1, "td700_estimado": -0.3}}, {"type": "Feature", "geometry": {"type": "Point", "coordinates": [-2.0, 39.5]}, "properties": {"haines_bajo": 5, "haines_medio": 5, "haines_alto": 2, "estabilidad_baja": 8.1, "sequedad_baja": 5.1, "estabilidad_media": 12.3, "sequedad_media": 5.1, "estabilidad_alta": 14.4, "sequedad_alta": 4.0, "t850": 14.6, "t700": 2.2, "t500": -12.2, "rh850": 71.6, "rh700": 74.6, "td850_estimado": 9.5, "td700_estimado": -1.8}}, {"type": "Feature", "geometry": {"type": "Point", "coordinates": [-1.75, 39.5]}, "properties": {"haines_bajo": 5, "haines_medio": 5, "haines_alto": 2, "estabilidad_baja": 8.1, "sequedad_baja": 5.3, "estabilidad_media": 12.3, "sequedad_media": 5.3, "estabilidad_alta": 14.4, "sequedad_alta": 3.7, "t850": 14.8, "t700": 2.5, "t500": -11.9, "rh850": 70.5, "rh700": 76.3, "td850_estimado": 9.5, "td700_estimado": -1.3}}, {"type": "Feature", "geometry": {"type": "Point", "coordinates": [-1.5, 39.5]}, "properties": {"haines_bajo": 5, "haines_medio": 5, "haines_alto": 2, "estabilidad_baja": 8.8, "sequedad_baja": 5.6, "estabilidad_media": 13.2, "sequedad_media": 5.6, "estabilidad_alta": 14.2, "sequedad_alta": 1.7, "t850": 15.3, "t700": 2.0, "t500": -12.1, "rh850": 69.1, "rh700": 88.4, "td850_estimado": 9.7, "td700_estimado": 0.3}}, {"type": "Feature", "geometry": {"type": "Point", "coordinates": [-1.25, 39.5]}, "properties": {"haines_bajo": 4, "haines_medio": 4, "haines_alto": 2, "estabilidad_baja": 8.9, "sequedad_baja": 3.9, "estabilidad_media": 11.2, "sequedad_media": 3.9, "estabilidad_alta": 15.2, "sequedad_alta": 5.8, "t850": 14.4, "t700": 3.2, "t500": -12.0, "rh850": 77.4, "rh700": 65.5, "td850_estimado": 10.5, "td700_estimado": -2.6}}, {"type": "Feature", "geometry": {"type": "Point", "coordinates": [-1.0, 39.5]}, "properties": {"haines_bajo": 4, "haines_medio": 4, "haines_alto": 2, "estabilidad_baja": 9.0, "sequedad_baja": 2.2, "estabilidad_media": 10.4, "sequedad_media": 2.2, "estabilidad_alta": 15.4, "sequedad_alta": 6.4, "t850": 13.6, "t700": 3.3, "t500": -12.2, "rh850": 86.4, "rh700": 63.1, "td850_estimado": 11.4, "td700_estimado": -3.1}}, {"type": "Feature", "geometry": {"type": "Point", "coordinates": [-0.75, 39.5]}, "properties": {"haines_bajo": 4, "haines_medio": 3, "haines_alto": 2, "estabilidad_baja": 8.7, "sequedad_baja": 0.2, "estabilidad_media": 8.7, "sequedad_media": 0.2, "estabilidad_alta": 16.1, "sequedad_alta": 7.6, "t850": 12.3, "t700": 3.6, "t500": -12.4, "rh850": 98.4, "rh700": 57.5, "td850_estimado": 12.1, "td700_estimado": -4.0}}, {"type": "Feature", "geometry": {"type": "Point", "coordinates": [-0.5, 39.5]}, "properties": {"haines_bajo": 4, "haines_medio": 4, "haines_alto": 2, "estabilidad_baja": 5.4, "sequedad_baja": 5.2, "estabilidad_media": 9.8, "sequedad_media": 5.2, "estabilidad_alta": 16.6, "sequedad_alta": 9.4, "t850": 13.8, "t700": 4.0, "t500": -12.7, "rh850": 71.0, "rh700": 50.3, "td850_estimado": 8.6, "td700_estimado": -5.4}}, {"type": "Feature", "geometry": {"type": "Point", "coordinates": [-0.25, 39.5]}, "properties": {"haines_bajo": 4, "haines_medio": 5, "haines_alto": 3, "estabilidad_baja": 3.7, "sequedad_baja": 6.9, "estabilidad_media": 10.0, "sequedad_media": 6.9, "estabilidad_alta": 17.1, "sequedad_alta": 11.1, "t850": 14.3, "t700": 4.3, "t500": -12.9, "rh850": 63.4, "rh700": 44.4, "td850_estimado": 7.4, "td700_estimado": -6.8}}, {"type": "Feature", "geometry": {"type": "Point", "coordinates": [0.0, 39.5]}, "properties": {"haines_bajo": 4, "haines_medio": 5, "haines_alto": 3, "estabilidad_baja": 3.2, "sequedad_baja": 7.2, "estabilidad_media": 10.1, "sequedad_media": 7.2, "estabilidad_alta": 17.7, "sequedad_alta": 11.1, "t850": 14.5, "t700": 4.4, "t500": -13.2, "rh850": 61.9, "rh700": 44.3, "td850_estimado": 7.3, "td700_estimado": -6.7}}, {"type": "Feature", "geometry": {"type": "Point", "coordinates": [0.25, 39.5]}, "properties": {"haines_bajo": 4, "haines_medio": 5, "haines_alto": 3, "estabilidad_baja": 3.2, "sequedad_baja": 6.5, "estabilidad_media": 10.2, "sequedad_media": 6.5, "estabilidad_alta": 17.8, "sequedad_alta": 8.4, "t850": 14.5, "t700": 4.3, "t500": -13.5, "rh850": 65.0, "rh700": 54.6, "td850_estimado": 8.0, "td700_estimado": -4.1}}, {"type": "Feature", "geometry": {"type": "Point", "coordinates": [0.5, 39.5]}, "properties": {"haines_bajo": 4, "haines_medio": 5, "haines_alto": 3, "estabilidad_baja": 3.3, "sequedad_baja": 6.4, "estabilidad_media": 10.4, "sequedad_media": 6.4, "estabilidad_alta": 17.6, "sequedad_alta": 6.5, "t850": 14.6, "t700": 4.2, "t500": -13.4, "rh850": 65.6, "rh700": 62.6, "td850_estimado": 8.3, "td700_estimado": -2.3}}, {"type": "Feature", "geometry": {"type": "Point", "coordinates": [0.75, 39.5]}, "properties": {"haines_bajo": 4, "haines_medio": 5, "haines_alto": 3, "estabilidad_baja": 3.4, "sequedad_baja": 7.2, "estabilidad_media": 10.8, "sequedad_media": 7.2, "estabilidad_alta": 17.5, "sequedad_alta": 5.5, "t850": 15.0, "t700": 4.2, "t500": -13.3, "rh850": 62.1, "rh700": 67.2, "td850_estimado": 7.8, "td700_estimado": -1.4}}, {"type": "Feature", "geometry": {"type": "Point", "coordinates": [1.0, 39.5]}, "properties": {"haines_bajo": 4, "haines_medio": 5, "haines_alto": 3, "estabilidad_baja": 3.6, "sequedad_baja": 8.2, "estabilidad_media": 11.3, "sequedad_media": 8.2, "estabilidad_alta": 17.5, "sequedad_alta": 4.6, "t850": 15.5, "t700": 4.2, "t500": -13.3, "rh850": 58.0, "rh700": 71.9, "td850_estimado": 7.2, "td700_estimado": -0.4}}, {"type": "Feature", "geometry": {"type": "Point", "coordinates": [-2.0, 39.75]}, "properties": {"haines_bajo": 5, "haines_medio": 5, "haines_alto": 2, "estabilidad_baja": 7.0, "sequedad_baja": 5.5, "estabilidad_media": 12.1, "sequedad_media": 5.5, "estabilidad_alta": 14.1, "sequedad_alta": 1.5, "t850": 14.2, "t700": 2.1, "t500": -12.0, "rh850": 69.7, "rh700": 90.0, "td850_estimado": 8.7, "td700_estimado": 0.6}}, {"type": "Feature", "geometry": {"type": "Point", "coordinates": [-1.75, 39.75]}, "properties": {"haines_bajo": 5, "haines_medio": 5, "haines_alto": 2, "estabilidad_baja": 7.1, "sequedad_baja": 5.9, "estabilidad_media": 11.5, "sequedad_media": 5.9, "estabilidad_alta": 15.0, "sequedad_alta": 3.6, "t850": 14.4, "t700": 2.9, "t500": -12.1, "rh850": 67.8, "rh700": 77.4, "td850_estimado": 8.6, "td700_estimado": -0.7}}, {"type": "Feature", "geometry": {"type": "Point", "coordinates": [-1.5, 39.75]}, "properties": {"haines_bajo": 4, "haines_medio": 4, "haines_alto": 2, "estabilidad_baja": 7.6, "sequedad_baja": 4.6, "estabilidad_media": 11.0, "sequedad_media": 4.6, "estabilidad_alta": 15.4, "sequedad_alta": 4.8, "t850": 14.3, "t700": 3.3, "t500": -12.1, "rh850": 73.9, "rh700": 70.9, "td850_estimado": 9.7, "td700_estimado": -1.4}}, {"type": "Feature", "geometry": {"type": "Point", "coordinates": [-1.25, 39.75]}, "properties": {"haines_bajo": 4, "haines_medio": 4, "haines_alto": 2, "estabilidad_baja": 8.3, "sequedad_baja": 3.2, "estabilidad_media": 10.8, "sequedad_media": 3.2, "estabilidad_alta": 15.6, "sequedad_alta": 5.5, "t850": 14.0, "t700": 3.2, "t500": -12.4, "rh850": 81.3, "rh700": 67.2, "td850_estimado": 10.8, "td700_estimado": -2.3}}, {"type": "Feature", "geometry": {"type": "Point", "coordinates": [-1.0, 39.75]}, "properties": {"haines_bajo": 4, "haines_medio": 3, "haines_alto": 2, "estabilidad_baja": 8.9, "sequedad_baja": 1.7, "estabilidad_media": 10.0, "sequedad_media": 1.7, "estabilidad_alta": 15.9, "sequedad_alta": 6.5, "t850": 13.2, "t700": 3.2, "t500": -12.7, "rh850": 89.6, "rh700": 62.4, "td850_estimado": 11.5, "td700_estimado": -3.3}}, {"type": "Feature", "geometry": {"type": "Point", "coordinates": [-0.75, 39.75]}, "properties": {"haines_bajo": 4, "haines_medio": 3, "haines_alto": 2, "estabilidad_baja": 9.1, "sequedad_baja": 0.6, "estabilidad_media": 9.5, "sequedad_media": 0.6, "estabilidad_alta": 15.9, "sequedad_alta": 7.0, "t850": 12.9, "t700": 3.3, "t500": -12.6, "rh850": 96.3, "rh700": 60.2, "td850_estimado": 12.3, "td700_estimado": -3.6}}, {"type": "Feature", "geometry": {"type": "Point", "coordinates": [-0.5, 39.75]}, "properties": {"haines_bajo": 4, "haines_medio": 3, "haines_alto": 2, "estabilidad_baja": 8.4, "sequedad_baja": 0.5, "estabilidad_media": 8.9, "sequedad_media": 0.5, "estabilidad_alta": 16.4, "sequedad_alta": 7.3, "t850": 12.6, "t700": 3.6, "t500": -12.8, "rh850": 96.5, "rh700": 58.7, "td850_estimado": 12.0, "td700_estimado": -3.7}}, {"type": "Feature", "geometry": {"type": "Point", "coordinates": [-0.25, 39.75]}, "properties": {"haines_bajo": 3, "haines_medio": 3, "haines_alto": 2, "estabilidad_baja": 5.0, "sequedad_baja": 4.6, "estabilidad_media": 9.9, "sequedad_media": 4.6, "estabilidad_alta": 16.9, "sequedad_alta": 7.6, "t850": 13.7, "t700": 3.8, "t500": -13.1, "rh850": 73.7, "rh700": 57.7, "td850_estimado": 9.1, "td700_estimado": -3.8}}, {"type": "Feature", "geometry": {"type": "Point", "coordinates": [0.0, 39.75]}, "properties": {"haines_bajo": 4, "haines_medio": 5, "haines_alto": 3, "estabilidad_baja": 3.8, "sequedad_baja": 6.1, "estabilidad_media": 10.1, "sequedad_media": 6.1, "estabilidad_alta": 17.4, "sequedad_alta": 8.1, "t850": 14.1, "t700": 4.0, "t500": -13.4, "rh850": 66.9, "rh700": 55.4, "td850_estimado": 8.1, "td700_estimado": -4.1}}, {"type": "Feature", "geometry": {"type": "Point", "coordinates": [0.25, 39.75]}, "properties": {"haines_bajo": 4, "haines_medio": 5, "haines_alto": 3, "estabilidad_baja": 3.3, "sequedad_baja": 7.2, "estabilidad_media": 10.2, "sequedad_media": 7.2, "estabilidad_alta": 17.7, "sequedad_alta": 8.9, "t850": 14.4, "t700": 4.2, "t500": -13.5, "rh850": 62.1, "rh700": 52.4, "td850_estimado": 7.3, "td700_estimado": -4.7}}, {"type": "Feature", "geometry": {"type": "Point", "coordinates": [0.5, 39.75]}, "properties": {"haines_bajo": 4, "haines_medio": 5, "haines_alto": 3, "estabilidad_baja": 3.5, "sequedad_baja": 6.5, "estabilidad_media": 10.3, "sequedad_media": 6.5, "estabilidad_alta": 17.6, "sequedad_alta": 8.7, "t850": 14.5, "t700": 4.2, "t500": -13.3, "rh850": 64.8, "rh700": 53.3, "td850_estimado": 8.0, "td700_estimado": -4.4}}, {"type": "Feature", "geometry": {"type": "Point", "coordinates": [0.75, 39.75]}, "properties": {"haines_bajo": 4, "haines_medio": 5, "haines_alto": 3, "estabilidad_baja": 3.7, "sequedad_baja": 6.4, "estabilidad_media": 10.5, "sequedad_media": 6.4, "estabilidad_alta": 17.5, "sequedad_alta": 7.6, "t850": 14.8, "t700": 4.2, "t500": -13.3, "rh850": 65.4, "rh700": 57.9, "td850_estimado": 8.3, "td700_estimado": -3.3}}, {"type": "Feature", "geometry": {"type": "Point", "coordinates": [1.0, 39.75]}, "properties": {"haines_bajo": 4, "haines_medio": 5, "haines_alto": 3, "estabilidad_baja": 4.0, "sequedad_baja": 7.2, "estabilidad_media": 10.9, "sequedad_media": 7.2, "estabilidad_alta": 17.4, "sequedad_alta": 5.8, "t850": 15.1, "t700": 4.2, "t500": -13.2, "rh850": 62.2, "rh700": 65.8, "td850_estimado": 7.9, "td700_estimado": -1.7}}, {"type": "Feature", "geometry": {"type": "Point", "coordinates": [-2.0, 40.0]}, "properties": {"haines_bajo": 5, "haines_medio": 5, "haines_alto": 2, "estabilidad_baja": 7.4, "sequedad_baja": 6.2, "estabilidad_media": 12.7, "sequedad_media": 6.2, "estabilidad_alta": 13.8, "sequedad_alta": 0.8, "t850": 14.2, "t700": 1.6, "t500": -12.3, "rh850": 66.3, "rh700": 94.1, "td850_estimado": 8.0, "td700_estimado": 0.7}}, {"type": "Feature", "geometry": {"type": "Point", "coordinates": [-1.75, 40.0]}, "properties": {"haines_bajo": 4, "haines_medio": 5, "haines_alto": 2, "estabilidad_baja": 6.9, "sequedad_baja": 5.8, "estabilidad_media": 11.7, "sequedad_media": 5.8, "estabilidad_alta": 15.0, "sequedad_alta": 3.0, "t850": 14.4, "t700": 2.7, "t500": -12.3, "rh850": 68.3, "rh700": 80.9, "td850_estimado": 8.6, "td700_estimado": -0.2}}, {"type": "Feature", "geometry": {"type": "Point", "coordinates": [-1.5, 40.0]}, "properties": {"haines_bajo": 4, "haines_medio": 4, "haines_alto": 2, "estabilidad_baja": 7.5, "sequedad_baja": 4.7, "estabilidad_media": 11.6, "sequedad_media": 4.7, "estabilidad_alta": 15.1, "sequedad_alta": 3.7, "t850": 14.5, "t700": 2.9, "t500": -12.2, "rh850": 73.6, "rh700": 76.8, "td850_estimado": 9.8, "td700_estimado": -0.8}}, {"type": "Feature", "geometry": {"type": "Point", "coordinates": [-1.25, 40.0]}, "properties": {"haines_bajo": 4, "haines_medio": 4, "haines_alto": 2, "estabilidad_baja": 7.4, "sequedad_baja": 4.3, "estabilidad_media": 11.0, "sequedad_media": 4.3, "estabilidad_alta": 15.5, "sequedad_alta": 4.8, "t850": 14.1, "t700": 3.1, "t500": -12.3, "rh850": 75.1, "rh700": 70.7, "td850_estimado": 9.8, "td700_estimado": -1.7}}, {"type": "Feature", "geometry": {"type": "Point", "coordinates": [-1.0, 40.0]}, "properties": {"haines_bajo": 4, "haines_medio": 4, "haines_alto": 2, "estabilidad_baja": 7.0, "sequedad_baja": 4.6, "estabilidad_media": 11.5, "sequedad_media": 4.6, "estabilidad_alta": 15.8, "sequedad_alta": 5.4, "t850": 14.6, "t700": 3.1, "t500": -12.7, "rh850": 73.7, "rh700": 67.9, "td850_estimado": 9.9, "td700_estimado": -2.2}}, {"type": "Feature", "geometry": {"type": "Point", "coordinates": [-0.75, 40.0]}, "properties": {"haines_bajo": 4, "haines_medio": 4, "haines_alto": 2, "estabilidad_baja": 7.9, "sequedad_baja": 3.6, "estabilidad_media": 10.9, "sequedad_media": 3.6, "estabilidad_alta": 16.2, "sequedad_alta": 7.4, "t850": 14.4, "t700": 3.5, "t500": -12.7, "rh850": 78.8, "rh700": 58.6, "td850_estimado": 10.7, "td700_estimado": -3.9}}, {"type": "Feature", "geometry": {"type": "Point", "coordinates": [-0.5, 40.0]}, "properties": {"haines_bajo": 4, "haines_medio": 3, "haines_alto": 2, "estabilidad_baja": 9.1, "sequedad_baja": 1.6, "estabilidad_media": 9.7, "sequedad_media": 1.6, "estabilidad_alta": 16.5, "sequedad_alta": 8.6, "t850": 13.4, "t700": 3.7, "t500": -12.8, "rh850": 89.9, "rh700": 53.4, "td850_estimado": 11.8, "td700_estimado": -4.9}}, {"type": "Feature", "geometry": {"type": "Point", "coordinates": [-0.25, 40.0]}, "properties": {"haines_bajo": 4, "haines_medio": 3, "haines_alto": 2, "estabilidad_baja": 7.4, "sequedad_baja": 1.6, "estabilidad_media": 8.7, "sequedad_media": 1.6, "estabilidad_alta": 17.0, "sequedad_alta": 9.0, "t850": 12.6, "t700": 3.9, "t500": -13.0, "rh850": 90.2, "rh700": 52.0, "td850_estimado": 11.0, "td700_estimado": -5.0}}, {"type": "Feature", "geometry": {"type": "Point", "coordinates": [0.0, 40.0]}, "properties": {"haines_bajo": 3, "haines_medio": 3, "haines_alto": 3, "estabilidad_baja": 4.5, "sequedad_baja": 4.5, "estabilidad_media": 9.7, "sequedad_media": 4.5, "estabilidad_alta": 17.3, "sequedad_alta": 7.8, "t850": 13.8, "t700": 4.0, "t500": -13.2, "rh850": 74.1, "rh700": 57.0, "td850_estimado": 9.2, "td700_estimado": -3.7}}, {"type": "Feature", "geometry": {"type": "Point", "coordinates": [0.25, 40.0]}, "properties": {"haines_bajo": 4, "haines_medio": 5, "haines_alto": 3, "estabilidad_baja": 3.9, "sequedad_baja": 6.4, "estabilidad_media": 10.2, "sequedad_media": 6.4, "estabilidad_alta": 17.3, "sequedad_alta": 7.2, "t850": 14.3, "t700": 4.1, "t500": -13.2, "rh850": 65.5, "rh700": 59.5, "td850_estimado": 7.9, "td700_estimado": -3.1}}, {"type": "Feature", "geometry": {"type": "Point", "coordinates": [0.5, 40.0]}, "properties": {"haines_bajo": 4, "haines_medio": 5, "haines_alto": 3, "estabilidad_baja": 3.8, "sequedad_baja": 7.2, "estabilidad_media": 10.3, "sequedad_media": 7.2, "estabilidad_alta": 17.4, "sequedad_alta": 7.5, "t850": 14.5, "t700": 4.2, "t500": -13.2, "rh850": 61.8, "rh700": 58.3, "td850_estimado": 7.2, "td700_estimado": -3.3}}, {"type": "Feature", "geometry": {"type": "Point", "coordinates": [0.75, 40.0]}, "properties": {"haines_bajo": 4, "haines_medio": 5, "haines_alto": 3, "estabilidad_baja": 4.1, "sequedad_baja": 6.9, "estabilidad_media": 10.4, "sequedad_media": 6.9, "estabilidad_alta": 17.4, "sequedad_alta": 7.9, "t850": 14.6, "t700": 4.2, "t500": -13.2, "rh850": 63.3, "rh700": 56.5, "td850_estimado": 7.7, "td700_estimado": -3.7}}, {"type": "Feature", "geometry": {"type": "Point", "coordinates": [1.0, 40.0]}, "properties": {"haines_bajo": 4, "haines_medio": 5, "haines_alto": 3, "estabilidad_baja": 4.2, "sequedad_baja": 6.4, "estabilidad_media": 10.6, "sequedad_media": 6.4, "estabilidad_alta": 17.2, "sequedad_alta": 7.4, "t850": 14.8, "t700": 4.2, "t500": -13.1, "rh850": 65.5, "rh700": 58.6, "td850_estimado": 8.4, "td700_estimado": -3.2}}, {"type": "Feature", "geometry": {"type": "Point", "coordinates": [-2.0, 40.25]}, "properties": {"haines_bajo": 4, "haines_medio": 5, "haines_alto": 2, "estabilidad_baja": 6.7, "sequedad_baja": 6.8, "estabilidad_media": 12.5, "sequedad_media": 6.8, "estabilidad_alta": 14.8, "sequedad_alta": 1.8, "t850": 14.9, "t700": 2.4, "t500": -12.4, "rh850": 63.9, "rh700": 87.9, "td850_estimado": 8.1, "td700_estimado": 0.6}}, {"type": "Feature", "geometry": {"type": "Point", "coordinates": [-1.75, 40.25]}, "properties": {"haines_bajo": 4, "haines_medio": 5, "haines_alto": 2, "estabilidad_baja": 6.5, "sequedad_baja": 6.7, "estabilidad_media": 12.6, "sequedad_media": 6.7, "estabilidad_alta": 15.1, "sequedad_alta": 3.0, "t850": 15.4, "t700": 2.8, "t500": -12.4, "rh850": 64.2, "rh700": 80.4, "td850_estimado": 8.7, "td700_estimado": -0.3}}, {"type": "Feature", "geometry": {"type": "Point", "coordinates": [-1.5, 40.25]}, "properties": {"haines_bajo": 4, "haines_medio": 5, "haines_alto": 2, "estabilidad_baja": 6.9, "sequedad_baja": 7.4, "estabilidad_media": 13.1, "sequedad_media": 7.4, "estabilidad_alta": 15.1, "sequedad_alta": 3.8, "t850": 15.9, "t700": 2.8, "t500": -12.3, "rh850": 61.5, "rh700": 76.1, "td850_estimado": 8.5, "td700_estimado": -1.0}}, {"type": "Feature", "geometry": {"type": "Point", "coordinates": [-1.25, 40.25]}, "properties": {"haines_bajo": 5, "haines_medio": 5, "haines_alto": 2, "estabilidad_baja": 7.9, "sequedad_baja": 8.2, "estabilidad_media": 13.5, "sequedad_media": 8.2, "estabilidad_alta": 15.3, "sequedad_alta": 3.2, "t850": 16.1, "t700": 2.6, "t500": -12.7, "rh850": 58.4, "rh700": 79.4, "td850_estimado": 8.0, "td700_estimado": -0.6}}, {"type": "Feature", "geometry": {"type": "Point", "coordinates": [-1.0, 40.25]}, "properties": {"haines_bajo": 5, "haines_medio": 5, "haines_alto": 2, "estabilidad_baja": 7.5, "sequedad_baja": 6.6, "estabilidad_media": 12.7, "sequedad_media": 6.6, "estabilidad_alta": 15.7, "sequedad_alta": 3.2, "t850": 15.6, "t700": 2.9, "t500": -12.8, "rh850": 64.9, "rh700": 79.4, "td850_estimado": 9.1, "td700_estimado": -0.3}}, {"type": "Feature", "geometry": {"type": "Point", "coordinates": [-0.75, 40.25]}, "properties": {"haines_bajo": 4, "haines_medio": 4, "haines_alto": 2, "estabilidad_baja": 7.5, "sequedad_baja": 4.5, "estabilidad_media": 11.3, "sequedad_media": 4.5, "estabilidad_alta": 16.1, "sequedad_alta": 5.7, "t850": 14.6, "t700": 3.3, "t500": -12.8, "rh850": 74.5, "rh700": 66.0, "td850_estimado": 10.1, "td700_estimado": -2.4}}, {"type": "Feature", "geometry": {"type": "Point", "coordinates": [-0.5, 40.25]}, "properties": {"haines_bajo": 4, "haines_medio": 4, "haines_alto": 2, "estabilidad_baja": 7.4, "sequedad_baja": 4.0, "estabilidad_media": 10.9, "sequedad_media": 4.0, "estabilidad_alta": 16.5, "sequedad_alta": 6.5, "t850": 14.4, "t700": 3.5, "t500": -13.0, "rh850": 77.1, "rh700": 62.5, "td850_estimado": 10.5, "td700_estimado": -3.0}}, {"type": "Feature", "geometry": {"type": "Point", "coordinates": [-0.25, 40.25]}, "properties": {"haines_bajo": 4, "haines_medio": 3, "haines_alto": 3, "estabilidad_baja": 8.6, "sequedad_baja": 0.8, "estabilidad_media": 9.1, "sequedad_media": 0.8, "estabilidad_alta": 17.0, "sequedad_alta": 9.3, "t850": 13.0, "t700": 3.8, "t500": -13.2, "rh850": 94.7, "rh700": 50.7, "td850_estimado": 12.1, "td700_estimado": -5.5}}, {"type": "Feature", "geometry": {"type": "Point", "coordinates": [0.0, 40.25]}, "properties": {"haines_bajo": 4, "haines_medio": 3, "haines_alto": 3, "estabilidad_baja": 7.1, "sequedad_baja": 1.4, "estabilidad_media": 8.7, "sequedad_media": 1.4, "estabilidad_alta": 17.3, "sequedad_alta": 9.7, "t850": 12.8, "t700": 4.1, "t500": -13.2, "rh850": 91.5, "rh700": 49.3, "td850_estimado": 11.4, "td700_estimado": -5.6}}, {"type": "Feature", "geometry": {"type": "Point", "coordinates": [0.25, 40.25]}, "properties": {"haines_bajo": 3, "haines_medio": 3, "haines_alto": 3, "estabilidad_baja": 4.4, "sequedad_baja": 4.6, "estabilidad_media": 9.5, "sequedad_media": 4.6, "estabilidad_alta": 17.4, "sequedad_alta": 8.3, "t850": 13.7, "t700": 4.2, "t500": -13.2, "rh850": 73.9, "rh700": 54.6, "td850_estimado": 9.1, "td700_estimado": -4.2}}, {"type": "Feature", "geometry": {"type": "Point", "coordinates": [0.5, 40.25]}, "properties": {"haines_bajo": 4, "haines_medio": 5, "haines_alto": 3, "estabilidad_baja": 4.0, "sequedad_baja": 5.8, "estabilidad_media": 10.1, "sequedad_media": 5.8, "estabilidad_alta": 17.3, "sequedad_alta": 7.1, "t850": 14.2, "t700": 4.1, "t500": -13.2, "rh850": 67.9, "rh700": 60.0, "td850_estimado": 8.4, "td700_estimado": -2.9}}, {"type": "Feature", "geometry": {"type": "Point", "coordinates": [0.75, 40.25]}, "properties": {"haines_bajo": 4, "haines_medio": 5, "haines_alto": 3, "estabilidad_baja": 3.3, "sequedad_baja": 7.2, "estabilidad_media": 10.6, "sequedad_media": 7.2, "estabilidad_alta": 17.2, "sequedad_alta": 6.6, "t850": 14.6, "t700": 4.1, "t500": -13.1, "rh850": 62.2, "rh700": 62.3, "td850_estimado": 7.5, "td700_estimado": -2.5}}, {"type": "Feature", "geometry": {"type": "Point", "coordinates": [1.0, 40.25]}, "properties": {"haines_bajo": 4, "haines_medio": 5, "haines_alto": 3, "estabilidad_baja": 3.3, "sequedad_baja": 7.2, "estabilidad_media": 10.7, "sequedad_media": 7.2, "estabilidad_alta": 17.0, "sequedad_alta": 6.4, "t850": 14.8, "t700": 4.0, "t500": -13.0, "rh850": 62.0, "rh700": 63.2, "td850_estimado": 7.6, "td700_estimado": -2.3}}, {"type": "Feature", "geometry": {"type": "Point", "coordinates": [-2.0, 40.5]}, "properties": {"haines_bajo": 4, "haines_medio": 5, "haines_alto": 2, "estabilidad_baja": 6.2, "sequedad_baja": 7.4, "estabilidad_media": 12.7, "sequedad_media": 7.4, "estabilidad_alta": 15.4, "sequedad_alta": 2.3, "t850": 15.5, "t700": 2.8, "t500": -12.5, "rh850": 61.4, "rh700": 85.1, "td850_estimado": 8.1, "td700_estimado": 0.6}}, {"type": "Feature", "geometry": {"type": "Point", "coordinates": [-1.75, 40.5]}, "properties": {"haines_bajo": 4, "haines_medio": 5, "haines_alto": 2, "estabilidad_baja": 6.1, "sequedad_baja": 7.8, "estabilidad_media": 13.2, "sequedad_media": 7.8, "estabilidad_alta": 15.4, "sequedad_alta": 1.7, "t850": 16.1, "t700": 2.9, "t500": -12.5, "rh850": 59.9, "rh700": 88.4, "td850_estimado": 8.3, "td700_estimado": 1.2}}, {"type": "Feature", "geometry": {"type": "Point", "coordinates": [-1.5, 40.5]}, "properties": {"haines_bajo": 4, "haines_medio": 5, "haines_alto": 2, "estabilidad_baja": 6.6, "sequedad_baja": 8.4, "estabilidad_media": 13.2, "sequedad_media": 8.4, "estabilidad_alta": 15.7, "sequedad_alta": 2.0, "t850": 16.2, "t700": 3.1, "t500": -12.6, "rh850": 57.6, "rh700": 86.8, "td850_estimado": 7.9, "td700_estimado": 1.1}}, {"type": "Feature", "geometry": {"type": "Point", "coordinates": [-1.25, 40.5]}, "properties": {"haines_bajo": 5, "haines_medio": 5, "haines_alto": 2, "estabilidad_baja": 7.8, "sequedad_baja": 8.7, "estabilidad_media": 13.8, "sequedad_media": 8.7, "estabilidad_alta": 15.7, "sequedad_alta": 0.2, "t850": 16.7, "t700": 2.9, "t500": -12.8, "rh850": 56.6, "rh700": 98.6, "td850_estimado": 8.0, "td700_estimado": 2.7}}, {"type": "Feature", "geometry": {"type": "Point", "coordinates": [-1.0, 40.5]}, "properties": {"haines_bajo": 5, "haines_medio": 5, "haines_alto": 2, "estabilidad_baja": 7.4, "sequedad_baja": 6.9, "estabilidad_media": 12.7, "sequedad_media": 6.9, "estabilidad_alta": 16.0, "sequedad_alta": 1.9, "t850": 15.7, "t700": 3.0, "t500": -13.0, "rh850": 63.5, "rh700": 87.1, "td850_estimado": 8.8, "td700_estimado": 1.1}}, {"type": "Feature", "geometry": {"type": "Point", "coordinates": [-0.75, 40.5]}, "properties": {"haines_bajo": 4, "haines_medio": 5, "haines_alto": 2, "estabilidad_baja": 6.6, "sequedad_baja": 8.5, "estabilidad_media": 13.5, "sequedad_media": 8.5, "estabilidad_alta": 16.3, "sequedad_alta": 3.1, "t850": 16.6, "t700": 3.0, "t500": -13.3, "rh850": 57.1, "rh700": 80.1, "td850_estimado": 8.0, "td700_estimado": -0.1}}, {"type": "Feature", "geometry": {"type": "Point", "coordinates": [-0.5, 40.5]}, "properties": {"haines_bajo": 4, "haines_medio": 5, "haines_alto": 2, "estabilidad_baja": 6.4, "sequedad_baja": 7.3, "estabilidad_media": 12.9, "sequedad_media": 7.3, "estabilidad_alta": 16.8, "sequedad_alta": 4.1, "t850": 16.3, "t700": 3.4, "t500": -13.4, "rh850": 62.0, "rh700": 74.3, "td850_estimado": 9.0, "td700_estimado": -0.8}}, {"type": "Feature", "geometry": {"type": "Point", "coordinates": [-0.25, 40.5]}, "properties": {"haines_bajo": 4, "haines_medio": 4, "haines_alto": 3, "estabilidad_baja": 7.8, "sequedad_baja": 3.2, "estabilidad_media": 10.4, "sequedad_media": 3.2, "estabilidad_alta": 17.1, "sequedad_alta": 6.1, "t850": 14.2, "t700": 3.7, "t500": -13.3, "rh850": 81.0, "rh700": 64.4, "td850_estimado": 10.9, "td700_estimado": -2.4}}, {"type": "Feature", "geometry": {"type": "Point", "coordinates": [0.0, 40.5]}, "properties": {"haines_bajo": 4, "haines_medio": 3, "haines_alto": 3, "estabilidad_baja": 8.4, "sequedad_baja": 0.3, "estabilidad_media": 8.6, "sequedad_media": 0.3, "estabilidad_alta": 17.1, "sequedad_alta": 8.1, "t850": 12.6, "t700": 3.9, "t500": -13.1, "rh850": 98.3, "rh700": 55.5, "td850_estimado": 12.3, "td700_estimado": -4.2}}, {"type": "Feature", "geometry": {"type": "Point", "coordinates": [0.25, 40.5]}, "properties": {"haines_bajo": 3, "haines_medio": 3, "haines_alto": 3, "estabilidad_baja": 5.5, "sequedad_baja": 3.9, "estabilidad_media": 9.3, "sequedad_media": 3.9, "estabilidad_alta": 17.2, "sequedad_alta": 9.3, "t850": 13.4, "t700": 4.1, "t500": -13.1, "rh850": 77.1, "rh700": 50.7, "td850_estimado": 9.5, "td700_estimado": -5.2}}, {"type": "Feature", "geometry": {"type": "Point", "coordinates": [0.5, 40.5]}, "properties": {"haines_bajo": 4, "haines_medio": 4, "haines_alto": 3, "estabilidad_baja": 3.8, "sequedad_baja": 5.1, "estabilidad_media": 9.8, "sequedad_media": 5.1, "estabilidad_alta": 17.1, "sequedad_alta": 8.3, "t850": 14.0, "t700": 4.1, "t500": -13.0, "rh850": 71.4, "rh700": 54.8, "td850_estimado": 8.9, "td700_estimado": -4.2}}, {"type": "Feature", "geometry": {"type": "Point", "coordinates": [0.75, 40.5]}, "properties": {"haines_bajo": 4, "haines_medio": 5, "haines_alto": 3, "estabilidad_baja": 3.1, "sequedad_baja": 6.0, "estabilidad_media": 10.4, "sequedad_media": 6.0, "estabilidad_alta": 17.1, "sequedad_alta": 7.2, "t850": 14.4, "t700": 4.0, "t500": -13.0, "rh850": 67.3, "rh700": 59.6, "td850_estimado": 8.5, "td700_estimado": -3.1}}, {"type": "Feature", "geometry": {"type": "Point", "coordinates": [1.0, 40.5]}, "properties": {"haines_bajo": 4, "haines_medio": 5, "haines_alto": 3, "estabilidad_baja": 3.4, "sequedad_baja": 6.6, "estabilidad_media": 10.6, "sequedad_media": 6.6, "estabilidad_alta": 17.1, "sequedad_alta": 6.7, "t850": 14.6, "t700": 4.0, "t500": -13.1, "rh850": 64.6, "rh700": 61.5, "td850_estimado": 8.0, "td700_estimado": -2.7}}, {"type": "Feature", "geometry": {"type": "Point", "coordinates": [-2.0, 40.75]}, "properties": {"haines_bajo": 4, "haines_medio": 5, "haines_alto": 2, "estabilidad_baja": 6.2, "sequedad_baja": 8.6, "estabilidad_media": 13.5, "sequedad_media": 8.6, "estabilidad_alta": 15.3, "sequedad_alta": 0.9, "t850": 16.2, "t700": 2.7, "t500": -12.7, "rh850": 56.6, "rh700": 93.6, "td850_estimado": 7.6, "td700_estimado": 1.7}}, {"type": "Feature", "geometry": {"type": "Point", "coordinates": [-1.75, 40.75]}, "properties": {"haines_bajo": 5, "haines_medio": 5, "haines_alto": 2, "estabilidad_baja": 6.3, "sequedad_baja": 9.3, "estabilidad_media": 13.7, "sequedad_media": 9.3, "estabilidad_alta": 15.6, "sequedad_alta": 0.1, "t850": 16.5, "t700": 2.8, "t500": -12.8, "rh850": 54.2, "rh700": 99.5, "td850_estimado": 7.3, "td700_estimado": 2.7}}, {"type": "Feature", "geometry": {"type": "Point", "coordinates": [-1.5, 40.75]}, "properties": {"haines_bajo": 5, "haines_medio": 5, "haines_alto": 2, "estabilidad_baja": 7.3, "sequedad_baja": 8.6, "estabilidad_media": 13.5, "sequedad_media": 8.6, "estabilidad_alta": 15.7, "sequedad_alta": 0.7, "t850": 16.3, "t700": 2.8, "t500": -13.0, "rh850": 56.7, "rh700": 95.0, "td850_estimado": 7.7, "td700_estimado": 2.1}}, {"type": "Feature", "geometry": {"type": "Point", "coordinates": [-1.25, 40.75]}, "properties": {"haines_bajo": 6, "haines_medio": 5, "haines_alto": 2, "estabilidad_baja": 7.8, "sequedad_baja": 9.5, "estabilidad_media": 14.5, "sequedad_media": 9.5, "estabilidad_alta": 15.7, "sequedad_alta": 0.2, "t850": 17.0, "t700": 2.5, "t500": -13.2, "rh850": 53.5, "rh700": 98.4, "td850_estimado": 7.5, "td700_estimado": 2.3}}, {"type": "Feature", "geometry": {"type": "Point", "coordinates": [-1.0, 40.75]}, "properties": {"haines_bajo": 5, "haines_medio": 5, "haines_alto": 2, "estabilidad_baja": 7.2, "sequedad_baja": 7.8, "estabilidad_media": 13.2, "sequedad_media": 7.8, "estabilidad_alta": 16.0, "sequedad_alta": 0.5, "t850": 16.2, "t700": 2.9, "t500": -13.1, "rh850": 60.0, "rh700": 96.4, "td850_estimado": 8.4, "td700_estimado": 2.4}}, {"type": "Feature", "geometry": {"type": "Point", "coordinates": [-0.75, 40.75]}, "properties": {"haines_bajo": 5, "haines_medio": 5, "haines_alto": 2, "estabilidad_baja": 7.4, "sequedad_baja": 6.2, "estabilidad_media": 12.4, "sequedad_media": 6.2, "estabilidad_alta": 16.1, "sequedad_alta": 1.7, "t850": 15.4, "t700": 3.0, "t500": -13.1, "rh850": 66.4, "rh700": 88.7, "td850_estimado": 9.2, "td700_estimado": 1.4}}, {"type": "Feature", "geometry": {"type": "Point", "coordinates": [-0.5, 40.75]}, "properties": {"haines_bajo": 4, "haines_medio": 4, "haines_alto": 2, "estabilidad_baja": 7.9, "sequedad_baja": 4.8, "estabilidad_media": 11.5, "sequedad_media": 4.8, "estabilidad_alta": 16.6, "sequedad_alta": 2.7, "t850": 14.9, "t700": 3.5, "t500": -13.1, "rh850": 73.1, "rh700": 82.3, "td850_estimado": 10.1, "td700_estimado": 0.7}}, {"type": "Feature", "geometry": {"type": "Point", "coordinates": [-0.25, 40.75]}, "properties": {"haines_bajo": 4, "haines_medio": 4, "haines_alto": 2, "estabilidad_baja": 8.8, "sequedad_baja": 3.4, "estabilidad_media": 10.7, "sequedad_media": 3.4, "estabilidad_alta": 16.8, "sequedad_alta": 4.0, "t850": 14.3, "t700": 3.6, "t500": -13.2, "rh850": 79.8, "rh700": 75.3, "td850_estimado": 10.9, "td700_estimado": -0.4}}, {"type": "Feature", "geometry": {"type": "Point", "coordinates": [0.0, 40.75]}, "properties": {"haines_bajo": 4, "haines_medio": 3, "haines_alto": 2, "estabilidad_baja": 8.4, "sequedad_baja": 1.7, "estabilidad_media": 9.6, "sequedad_media": 1.7, "estabilidad_alta": 16.9, "sequedad_alta": 5.8, "t850": 13.5, "t700": 3.9, "t500": -13.1, "rh850": 89.2, "rh700": 65.7, "td850_estimado": 11.7, "td700_estimado": -2.0}}, {"type": "Feature", "geometry": {"type": "Point", "coordinates": [0.25, 40.75]}, "properties": {"haines_bajo": 3, "haines_medio": 3, "haines_alto": 2, "estabilidad_baja": 6.9, "sequedad_baja": 1.6, "estabilidad_media": 9.0, "sequedad_media": 1.6, "estabilidad_alta": 17.0, "sequedad_alta": 6.4, "t850": 12.9, "t700": 3.9, "t500": -13.1, "rh850": 90.0, "rh700": 62.8, "td850_estimado": 11.3, "td700_estimado": -2.6}}, {"type": "Feature", "geometry": {"type": "Point", "coordinates": [0.5, 40.75]}, "properties": {"haines_bajo": 3, "haines_medio": 3, "haines_alto": 3, "estabilidad_baja": 4.3, "sequedad_baja": 5.0, "estabilidad_media": 9.9, "sequedad_media": 5.0, "estabilidad_alta": 17.0, "sequedad_alta": 7.4, "t850": 13.9, "t700": 3.9, "t500": -13.1, "rh850": 71.9, "rh700": 58.4, "td850_estimado": 8.9, "td700_estimado": -3.5}}, {"type": "Feature", "geometry": {"type": "Point", "coordinates": [0.75, 40.75]}, "properties": {"haines_bajo": 4, "haines_medio": 5, "haines_alto": 3, "estabilidad_baja": 3.5, "sequedad_baja": 5.2, "estabilidad_media": 10.1, "sequedad_media": 5.2, "estabilidad_alta": 17.0, "sequedad_alta": 7.5, "t850": 14.0, "t700": 3.9, "t500": -13.1, "rh850": 70.8, "rh700": 58.2, "td850_estimado": 8.8, "td700_estimado": -3.5}}, {"type": "Feature", "geometry": {"type": "Point", "coordinates": [1.0, 40.75]}, "properties": {"haines_bajo": 4, "haines_medio": 5, "haines_alto": 2, "estabilidad_baja": 3.8, "sequedad_baja": 5.2, "estabilidad_media": 10.1, "sequedad_media": 5.2, "estabilidad_alta": 17.0, "sequedad_alta": 7.0, "t850": 14.0, "t700": 3.9, "t500": -13.0, "rh850": 70.9, "rh700": 60.4, "td850_estimado": 8.8, "td700_estimado": -3.0}}, {"type": "Feature", "geometry": {"type": "Point", "coordinates": [-2.0, 41.0]}, "properties": {"haines_bajo": 4, "haines_medio": 5, "haines_alto": 2, "estabilidad_baja": 6.9, "sequedad_baja": 8.3, "estabilidad_media": 13.8, "sequedad_media": 8.3, "estabilidad_alta": 15.4, "sequedad_alta": 0.1, "t850": 16.1, "t700": 2.4, "t500": -13.0, "rh850": 57.7, "rh700": 99.5, "td850_estimado": 7.8, "td700_estimado": 2.3}}, {"type": "Feature", "geometry": {"type": "Point", "coordinates": [-1.75, 41.0]}, "properties": {"haines_bajo": 5, "haines_medio": 5, "haines_alto": 2, "estabilidad_baja": 7.7, "sequedad_baja": 8.0, "estabilidad_media": 13.6, "sequedad_media": 8.0, "estabilidad_alta": 15.8, "sequedad_alta": 0.2, "t850": 16.2, "t700": 2.6, "t500": -13.2, "rh850": 58.9, "rh700": 98.7, "td850_estimado": 8.1, "td700_estimado": 2.4}}, {"type": "Feature", "geometry": {"type": "Point", "coordinates": [-1.5, 41.0]}, "properties": {"haines_bajo": 5, "haines_medio": 5, "haines_alto": 2, "estabilidad_baja": 8.1, "sequedad_baja": 8.4, "estabilidad_media": 13.5, "sequedad_media": 8.4, "estabilidad_alta": 16.0, "sequedad_alta": 0.0, "t850": 16.4, "t700": 2.9, "t500": -13.2, "rh850": 57.6, "rh700": 99.7, "td850_estimado": 8.0, "td700_estimado": 2.8}}, {"type": "Feature", "geometry": {"type": "Point", "coordinates": [-1.25, 41.0]}, "properties": {"haines_bajo": 5, "haines_medio": 5, "haines_alto": 2, "estabilidad_baja": 7.7, "sequedad_baja": 6.8, "estabilidad_media": 12.7, "sequedad_media": 6.8, "estabilidad_alta": 15.9, "sequedad_alta": 0.8, "t850": 15.5, "t700": 2.8, "t500": -13.1, "rh850": 63.8, "rh700": 94.5, "td850_estimado": 8.7, "td700_estimado": 2.0}}, {"type": "Feature", "geometry": {"type": "Point", "coordinates": [-1.0, 41.0]}, "properties": {"haines_bajo": 4, "haines_medio": 4, "haines_alto": 2, "estabilidad_baja": 8.0, "sequedad_baja": 4.8, "estabilidad_media": 11.5, "sequedad_media": 4.8, "estabilidad_alta": 16.1, "sequedad_alta": 2.7, "t850": 14.6, "t700": 3.1, "t500": -13.0, "rh850": 73.0, "rh700": 82.2, "td850_estimado": 9.8, "td700_estimado": 0.4}}, {"type": "Feature", "geometry": {"type": "Point", "coordinates": [-0.75, 41.0]}, "properties": {"haines_bajo": 4, "haines_medio": 4, "haines_alto": 2, "estabilidad_baja": 8.7, "sequedad_baja": 3.1, "estabilidad_media": 10.6, "sequedad_media": 3.1, "estabilidad_alta": 16.3, "sequedad_alta": 3.3, "t850": 13.9, "t700": 3.4, "t500": -13.0, "rh850": 81.7, "rh700": 78.9, "td850_estimado": 10.9, "td700_estimado": 0.1}}, {"type": "Feature", "geometry": {"type": "Point", "coordinates": [-0.5, 41.0]}, "properties": {"haines_bajo": 4, "haines_medio": 4, "haines_alto": 2, "estabilidad_baja": 9.0, "sequedad_baja": 1.8, "estabilidad_media": 10.1, "sequedad_media": 1.8, "estabilidad_alta": 16.4, "sequedad_alta": 3.2, "t850": 13.5, "t700": 3.4, "t500": -13.0, "rh850": 88.6, "rh700": 79.8, "td850_estimado": 11.6, "td700_estimado": 0.2}}, {"type": "Feature", "geometry": {"type": "Point", "coordinates": [-0.25, 41.0]}, "properties": {"haines_bajo": 4, "haines_medio": 4, "haines_alto": 2, "estabilidad_baja": 9.2, "sequedad_baja": 2.0, "estabilidad_media": 10.2, "sequedad_media": 2.0, "estabilidad_alta": 16.6, "sequedad_alta": 3.8, "t850": 13.6, "t700": 3.5, "t500": -13.1, "rh850": 87.6, "rh700": 76.2, "td850_estimado": 11.6, "td700_estimado": -0.3}}, {"type": "Feature", "geometry": {"type": "Point", "coordinates": [0.0, 41.0]}, "properties": {"haines_bajo": 4, "haines_medio": 4, "haines_alto": 2, "estabilidad_baja": 9.2, "sequedad_baja": 1.9, "estabilidad_media": 10.0, "sequedad_media": 1.9, "estabilidad_alta": 16.8, "sequedad_alta": 4.2, "t850": 13.6, "t700": 3.6, "t500": -13.2, "rh850": 88.4, "rh700": 74.2, "td850_estimado": 11.8, "td700_estimado": -0.5}}, {"type": "Feature", "geometry": {"type": "Point", "coordinates": [0.25, 41.0]}, "properties": {"haines_bajo": 3, "haines_medio": 4, "haines_alto": 2, "estabilidad_baja": 6.8, "sequedad_baja": 3.9, "estabilidad_media": 10.3, "sequedad_media": 3.9, "estabilidad_alta": 16.7, "sequedad_alta": 4.4, "t850": 13.8, "t700": 3.5, "t500": -13.2, "rh850": 77.5, "rh700": 73.1, "td850_estimado": 9.9, "td700_estimado": -0.8}}, {"type": "Feature", "geometry": {"type": "Point", "coordinates": [0.5, 41.0]}, "properties": {"haines_bajo": 3, "haines_medio": 4, "haines_alto": 2, "estabilidad_baja": 5.4, "sequedad_baja": 4.9, "estabilidad_media": 10.3, "sequedad_media": 4.9, "estabilidad_alta": 16.6, "sequedad_alta": 4.0, "t850": 13.8, "t700": 3.5, "t500": -13.1, "rh850": 72.3, "rh700": 74.9, "td850_estimado": 8.9, "td700_estimado": -0.5}}, {"type": "Feature", "geometry": {"type": "Point", "coordinates": [0.75, 41.0]}, "properties": {"haines_bajo": 3, "haines_medio": 4, "haines_alto": 2, "estabilidad_baja": 4.6, "sequedad_baja": 4.5, "estabilidad_media": 10.1, "sequedad_media": 4.5, "estabilidad_alta": 16.4, "sequedad_alta": 4.0, "t850": 13.6, "t700": 3.5, "t500": -12.9, "rh850": 74.1, "rh700": 75.3, "td850_estimado": 9.1, "td700_estimado": -0.5}}, {"type": "Feature", "geometry": {"type": "Point", "coordinates": [1.0, 41.0]}, "properties": {"haines_bajo": 3, "haines_medio": 3, "haines_alto": 2, "estabilidad_baja": 4.6, "sequedad_baja": 4.3, "estabilidad_media": 9.8, "sequedad_media": 4.3, "estabilidad_alta": 16.5, "sequedad_alta": 4.9, "t850": 13.4, "t700": 3.6, "t500": -12.9, "rh850": 75.1, "rh700": 70.4, "td850_estimado": 9.1, "td700_estimado": -1.2}}]}